stationId,name,country,owner,type,status,stationHeight,barometerHeight,latitude,longitude,region,created,operationFrom,operationTo,updated,validFrom,validTo,wmoCountryCode,wmoStationId
4202,Pituffik,GRL,Mittafik/Grønlandske lufthavne,Synop,Active,,,76.5333,-68.75,4,2024-11-28T14:46:41Z,1948-12-31T00:00:00Z,,,1948-12-31T00:00:00Z,2006-10-16T00:00:00Z,6070,4202
4202,Pituffik,GRL,Mittafik/Grønlandske lufthavne,Synop,Active,76.5,,76.5311,-68.7031,4,2024-11-28T14:46:41Z,1948-12-31T00:00:00Z,,,2006-10-16T00:00:00Z,2019-01-15T13:34:47Z,6070,4202
4202,Pituffik,GRL,Mittafik/Grønlandske lufthavne,Synop,Active,77,59,76.5311,-68.7031,4,2024-11-28T14:46:41Z,1948-12-31T00:00:00Z,,,2019-01-15T13:34:47Z,,6070,4202
4203,Kitsissut,GRL,DMI,GIWS,Active,11,,76.7333,-73.1208,4,2024-11-28T14:46:41Z,1980-06-15T00:00:00Z,,,1980-06-15T00:00:00Z,2019-01-15T13:34:47Z,6070,4203
4203,Kitsissut,GRL,DMI,GIWS,Active,11,15,76.7333,-73.1208,4,2024-11-28T14:46:41Z,1980-06-15T00:00:00Z,,,2019-01-15T13:34:47Z,,6070,4203
4205,Qaanaaq,GRL,Mittafik/Grønlandske lufthavne,Synop,Active,,,77.4833,-69.2,4,2024-11-28T14:46:41Z,1964-01-01T00:00:00Z,,,1964-01-01T00:00:00Z,1980-07-01T00:00:00Z,6070,4205
4205,Mittarfik Qaanaaq,GRL,Mittafik/Grønlandske lufthavne,Synop,Active,16,,77.4853,-69.3744,4,2024-11-28T14:46:41Z,1964-01-01T00:00:00Z,,,1980-07-01T00:00:00Z,2019-01-15T13:34:47Z,6070,4205
4205,Mittarfik Qaanaaq,GRL,Mittafik/Grønlandske lufthavne,Synop,Active,16,17,77.4853,-69.3744,4,2024-11-28T14:46:41Z,1964-01-01T00:00:00Z,,,2019-01-15T13:34:47Z,,6070,4205
4208,Kitsissorsuit,GRL,DMI,GIWS,Active,40,,74.0606,-57.7231,4,2024-11-28T14:46:41Z,1981-09-10T00:00:00Z,,,1981-09-10T00:00:00Z,2019-01-15T13:34:47Z,6070,4208
4208,Kitsissorsuit,GRL,DMI,GIWS,Active,40,39.5,74.0606,-57.7231,4,2024-11-28T14:46:41Z,1981-09-10T00:00:00Z,,,2019-01-15T13:34:47Z,,6070,4208
4211,Mittarfik Upernavik,GRL,Mittafik/Grønlandske lufthavne,Synop,Active,126,,72.7903,-56.1306,4,2024-11-28T14:46:41Z,2000-10-23T00:00:00Z,,,2000-10-23T00:00:00Z,2019-01-15T13:34:47Z,6070,4211
4211,Mittarfik Upernavik,GRL,Mittafik/Grønlandske lufthavne,Synop,Active,126,130,72.7903,-56.1306,4,2024-11-28T14:46:41Z,2000-10-23T00:00:00Z,,,2019-01-15T13:34:47Z,,6070,4211
4213,Mittarfik Uummannaq-Qaarsut,GRL,Mittafik/Grønlandske lufthavne,Synop,Active,88,,70.7342,-52.6961,4,2024-11-28T14:46:41Z,1999-09-25T00:00:00Z,,,1999-09-25T00:00:00Z,2019-01-15T13:34:47Z,6070,4213
4213,Mittarfik Uummannaq-Qaarsut,GRL,Mittafik/Grønlandske lufthavne,Synop,Active,88,89,70.7342,-52.6961,4,2024-11-28T14:46:41Z,1999-09-25T00:00:00Z,,,2019-01-15T13:34:47Z,,6070,4213
4214,Qullissat,GRL,DMI,GIWS,Active,,,70.05,-52.85,4,2024-11-28T14:46:41Z,1961-01-01T00:00:00Z,,,1961-01-01T00:00:00Z,1972-09-01T00:00:00Z,6070,4214
4214,Nuussuaq,GRL,DMI,GIWS,Active,27,,70.6561,-54.6,4,2024-11-28T14:46:41Z,1961-01-01T00:00:00Z,,,1972-09-01T00:00:00Z,2019-01-15T13:34:46Z,6070,4214
4214,Nuussuaq,GRL,DMI,GIWS,Active,27,28,70.6561,-54.6,4,2024-11-28T14:46:41Z,1961-01-01T00:00:00Z,,,2019-01-15T13:34:46Z,,6070,4214
4219,Qeqertarsuaq Heliport,GRL,Mittafik/Grønlandske lufthavne,Synop,Active,11,,69.2511,-53.5381,4,2024-11-28T14:46:41Z,2004-01-21T00:00:00Z,,,2004-01-21T00:00:00Z,2019-01-15T13:34:47Z,6070,4219
4219,Qeqertarsuaq Heliport,GRL,Mittafik/Grønlandske lufthavne,Synop,Active,11,2,69.2511,-53.5381,4,2024-11-28T14:46:41Z,2004-01-21T00:00:00Z,,,2019-01-15T13:34:47Z,2023-03-22T12:08:06Z,6070,4219
4219,Qeqertarsuaq Heliport,GRL,Mittafik/Grønlandske lufthavne,Synop,Active,11,2,69.2514,-53.5147,4,2024-11-28T14:46:41Z,2004-01-21T00:00:00Z,,,2023-03-22T12:08:06Z,,6070,4219
4220,Aasiaat,GRL,DMI,Synop,Active,43,,68.7081,-52.8517,4,2024-11-28T14:46:41Z,1958-01-01T00:00:00Z,,,1958-01-01T00:00:00Z,2019-01-15T13:34:47Z,6070,4220
4220,Aasiaat,GRL,DMI,Synop,Active,43,41,68.7081,-52.8517,4,2024-11-28T14:46:41Z,1958-01-01T00:00:00Z,,,2019-01-15T13:34:47Z,,6070,4220
4221,Mittarfik Ilulissat,GRL,Mittafik/Grønlandske lufthavne,Synop,Active,29,,69.2403,-51.0661,4,2024-11-28T14:46:41Z,1984-01-01T00:00:00Z,,,1984-01-01T00:00:00Z,2019-01-15T13:34:47Z,6070,4221
4221,Mittarfik Ilulissat,GRL,Mittafik/Grønlandske lufthavne,Synop,Active,29,33.62,69.2403,-51.0661,4,2024-11-28T14:46:41Z,1984-01-01T00:00:00Z,,,2019-01-15T13:34:47Z,,6070,4221
4224,Mittarfik Aasiaat,GRL,Mittafik/Grønlandske lufthavne,Synop,Active,23,,68.7219,-52.7847,4,2024-11-28T14:46:41Z,1998-10-17T00:00:00Z,,,1998-10-17T00:00:00Z,2019-01-15T13:34:47Z,6070,4224
4224,Mittarfik Aasiaat,GRL,Mittafik/Grønlandske lufthavne,Synop,Active,23,27,68.7219,-52.7847,4,2024-11-28T14:46:41Z,1998-10-17T00:00:00Z,,,2019-01-15T13:34:47Z,,6070,4224
4228,Attu,GRL,DMI,GIWS,Active,10,,67.7833,-53.9667,4,2024-11-28T14:46:41Z,1983-08-18T00:00:00Z,,,1983-08-18T00:00:00Z,1990-06-17T00:00:00Z,6070,4228
4228,Kitsissut/Attu,GRL,DMI,GIWS,Active,10,,67.7833,-53.9667,4,2024-11-28T14:46:41Z,1983-08-18T00:00:00Z,,,1990-06-17T00:00:00Z,2009-10-07T00:00:00Z,6070,4228
4228,Kitsissut/Attu,GRL,DMI,GIWS,Active,10,,67.7842,-53.965,4,2024-11-28T14:46:41Z,1983-08-18T00:00:00Z,,,2009-10-07T00:00:00Z,2019-01-15T13:34:47Z,6070,4228
4228,Kitsissut/Attu,GRL,DMI,GIWS,Active,10,11.5,67.7842,-53.965,4,2024-11-28T14:46:41Z,1983-08-18T00:00:00Z,,,2019-01-15T13:34:47Z,,6070,4228
4231,Mittarfik Kangerlussuaq,GRL,Mittafik/Grønlandske lufthavne,Synop,Active,,,67.0181,-50.7033,4,2024-11-28T14:46:41Z,1973-05-01T00:00:00Z,,,1973-05-01T00:00:00Z,2004-07-01T00:00:00Z,6070,4231
4231,Mittarfik Kangerlussuaq,GRL,Mittafik/Grønlandske lufthavne,Synop,Active,50,,67.0133,-50.7172,4,2024-11-28T14:46:41Z,1973-05-01T00:00:00Z,,,2004-07-01T00:00:00Z,2019-01-15T13:34:47Z,6070,4231
4231,Mittarfik Kangerlussuaq,GRL,Mittafik/Grønlandske lufthavne,Synop,Active,50,53,67.0133,-50.7172,4,2024-11-28T14:46:41Z,1973-05-01T00:00:00Z,,,2019-01-15T13:34:47Z,,6070,4231
4234,Mittarfik Sisimiut,GRL,Mittafik/Grønlandske lufthavne,Synop,Active,10,,66.9514,-53.7294,4,2024-11-28T14:46:41Z,1998-10-03T00:00:00Z,,,1998-10-03T00:00:00Z,2019-01-15T13:34:47Z,6070,4234
4234,Mittarfik Sisimiut,GRL,Mittafik/Grønlandske lufthavne,Synop,Active,10,8,66.9514,-53.7294,4,2024-11-28T14:46:41Z,1998-10-03T00:00:00Z,,,2019-01-15T13:34:47Z,,6070,4234
4241,Mittarfik Maniitsoq,GRL,Mittafik/Grønlandske lufthavne,Synop,Active,28,,65.4125,-52.9394,4,2024-11-28T14:46:41Z,1999-09-30T00:00:00Z,,,1999-09-30T00:00:00Z,2019-01-15T13:34:47Z,6070,4241
4241,Mittarfik Maniitsoq,GRL,Mittafik/Grønlandske lufthavne,Synop,Active,28,32,65.4125,-52.9394,4,2024-11-28T14:46:41Z,1999-09-30T00:00:00Z,,,2019-01-15T13:34:47Z,,6070,4241
4242,Sioralik,GRL,DMI,GIWS,Active,12,,65.0131,-52.5286,4,2024-11-28T14:46:41Z,1983-06-16T00:00:00Z,,,1983-06-16T00:00:00Z,2019-01-15T13:34:47Z,6070,4242
4242,Sioralik,GRL,DMI,GIWS,Active,12,14,65.0131,-52.5286,4,2024-11-28T14:46:41Z,1983-06-16T00:00:00Z,,,2019-01-15T13:34:47Z,,6070,4242
4250,Nuuk,GRL,DMI,Synop,Active,,,64.1667,-51.75,4,2024-11-28T14:46:41Z,1958-01-01T00:00:00Z,,,1958-01-01T00:00:00Z,1991-09-01T00:00:00Z,6070,4250
4250,Nuuk,GRL,DMI,Synop,Active,79.65,,64.1833,-51.7308,4,2024-11-28T14:46:41Z,1958-01-01T00:00:00Z,,,1991-09-01T00:00:00Z,2019-01-15T13:34:46Z,6070,4250
4250,Nuuk,GRL,DMI,Synop,Active,79.65,83.7,64.1833,-51.7308,4,2024-11-28T14:46:41Z,1958-01-01T00:00:00Z,,,2019-01-15T13:34:46Z,,6070,4250
4253,Ukiiviit,GRL,DMI,GIWS,Active,,,62.5667,-50.4167,4,2024-11-28T14:46:41Z,1982-06-20T00:00:00Z,,,1982-06-20T00:00:00Z,2010-08-28T00:00:00Z,6070,4253
4253,Ukiiviit,GRL,DMI,GIWS,Active,22.23,,62.5789,-50.4058,4,2024-11-28T14:46:41Z,1982-06-20T00:00:00Z,,,2010-08-28T00:00:00Z,2019-01-15T13:34:47Z,6070,4253
4253,Ukiiviit,GRL,DMI,GIWS,Active,22.23,22,62.5789,-50.4058,4,2024-11-28T14:46:41Z,1982-06-20T00:00:00Z,,,2019-01-15T13:34:47Z,2019-10-04T12:01:03Z,6070,4253
4253,Ukiiviit,GRL,DMI,GIWS,Active,20,22,62.5789,-50.4058,4,2024-11-28T14:46:41Z,1982-06-20T00:00:00Z,,,2019-10-04T12:01:03Z,,6070,4253
4254,Qeqertarsuatsiaat,GRL,Mittafik/Grønlandske lufthavne,Synop,Active,,,63.0833,-50.6833,4,2024-11-28T14:46:41Z,1967-01-17T00:00:00Z,,,1967-01-17T00:00:00Z,1975-08-01T00:00:00Z,6070,4254
4254,Mittarfik Nuuk,GRL,Mittafik/Grønlandske lufthavne,Synop,Active,86,,64.1908,-51.6781,4,2024-11-28T14:46:41Z,1967-01-17T00:00:00Z,,,1975-08-01T00:00:00Z,2019-01-15T13:34:47Z,6070,4254
4254,Mittarfik Nuuk,GRL,Mittafik/Grønlandske lufthavne,Synop,Active,86,87,64.1908,-51.6781,4,2024-11-28T14:46:41Z,1967-01-17T00:00:00Z,,,2019-01-15T13:34:47Z,,6070,4254
4260,Paamiut,GRL,Mittafik/Grønlandske lufthavne,Synop,Active,,,62,-49.7167,4,2024-11-28T14:46:41Z,1958-01-01T00:00:00Z,,,1958-01-01T00:00:00Z,1992-09-22T00:00:00Z,6070,4260
4260,Paamiut Heliport,GRL,Mittafik/Grønlandske lufthavne,Synop,Active,,,62,-49.6667,4,2024-11-28T14:46:41Z,1958-01-01T00:00:00Z,,,1992-09-22T00:00:00Z,2007-12-07T00:00:00Z,6070,4260
4260,Mittarfik Paamiut,GRL,Mittafik/Grønlandske lufthavne,Synop,Active,36,,62.0147,-49.6708,4,2024-11-28T14:46:41Z,1958-01-01T00:00:00Z,,,2007-12-07T00:00:00Z,2019-01-15T13:34:47Z,6070,4260
4260,Mittarfik Paamiut,GRL,Mittafik/Grønlandske lufthavne,Synop,Active,36,36,62.0147,-49.6708,4,2024-11-28T14:46:41Z,1958-01-01T00:00:00Z,,,2019-01-15T13:34:47Z,,6070,4260
4266,Nunarssuit,GRL,DMI,GIWS,Active,30.83,,60.7636,-48.4547,4,2024-11-28T14:46:41Z,1981-07-22T00:00:00Z,,,1981-07-22T00:00:00Z,2010-08-20T00:00:00Z,6070,4266
4266,Nunarssuit,GRL,DMI,GIWS,Active,30.83,,60.7636,-48.4544,4,2024-11-28T14:46:41Z,1981-07-22T00:00:00Z,,,2010-08-20T00:00:00Z,2019-01-15T13:34:47Z,6070,4266
4266,Nunarssuit,GRL,DMI,GIWS,Active,30.83,32.6,60.7636,-48.4544,4,2024-11-28T14:46:41Z,1981-07-22T00:00:00Z,,,2019-01-15T13:34:47Z,,6070,4266
4270,Mittarfik Narsarsuaq,GRL,Mittafik/Grønlandske lufthavne,Synop,Active,34.14,,61.1608,-45.4256,4,2024-11-28T14:46:41Z,1961-01-01T00:00:00Z,,,1961-01-01T00:00:00Z,2019-01-15T13:34:47Z,6070,4270
4270,Mittarfik Narsarsuaq,GRL,Mittafik/Grønlandske lufthavne,Synop,Active,34,31,61.1608,-45.4256,4,2024-11-28T14:46:41Z,1961-01-01T00:00:00Z,,,2019-01-15T13:34:47Z,,6070,4270
4271,Narsarsuaq Radiosonde,GRL,DMI,Synop,Active,3.9,,61.1575,-45.44,4,2024-11-28T14:46:41Z,2011-07-07T00:00:00Z,,,2011-07-07T00:00:00Z,2019-01-15T13:34:47Z,6070,4271
4271,Narsarsuaq Radiosonde,GRL,DMI,Synop,Active,3.9,5.4,61.1575,-45.44,4,2024-11-28T14:46:41Z,2011-07-07T00:00:00Z,,,2019-01-15T13:34:47Z,2024-05-28T11:53:16Z,6070,4271
4271,Narsarsuaq,GRL,DMI,Synop,Active,3.9,5.4,61.1575,-45.44,4,2024-11-28T14:46:41Z,2011-07-07T00:00:00Z,,,2024-05-28T11:53:16Z,,6070,4271
4272,Qaqortoq,GRL,DMI,Synop,Active,57,,60.7167,-46.05,4,2024-11-28T14:46:41Z,1961-01-01T00:00:00Z,,,1961-01-01T00:00:00Z,2003-09-09T00:00:00Z,6070,4272
4272,Qaqortoq,GRL,DMI,Synop,Active,57,,60.7156,-46.0489,4,2024-11-28T14:46:41Z,1961-01-01T00:00:00Z,,,2003-09-09T00:00:00Z,2019-01-15T13:34:47Z,6070,4272
4272,Qaqortoq,GRL,DMI,Synop,Active,57,57.4,60.7156,-46.0489,4,2024-11-28T14:46:41Z,1961-01-01T00:00:00Z,,,2019-01-15T13:34:47Z,,6070,4272
4273,Qaqortoq Heliport,GRL,Mittafik/Grønlandske lufthavne,Synop,Active,18,,60.7131,-46.0294,4,2024-11-28T14:46:41Z,2004-03-17T00:00:00Z,,,2004-03-17T00:00:00Z,2019-01-15T13:34:47Z,6070,4273
4273,Qaqortoq Heliport,GRL,Mittafik/Grønlandske lufthavne,Synop,Active,18,21,60.7131,-46.0294,4,2024-11-28T14:46:41Z,2004-03-17T00:00:00Z,,,2019-01-15T13:34:47Z,2023-03-22T12:20:46Z,6070,4273
4273,Qaqortoq Heliport,GRL,Mittafik/Grønlandske lufthavne,Synop,Active,18,21,60.7158,-46.0294,4,2024-11-28T14:46:41Z,2004-03-17T00:00:00Z,,,2023-03-22T12:20:46Z,,6070,4273
4285,Angissoq,GRL,DMI,GIWS,Active,14.38,,59.9908,-45.1467,4,2024-11-28T14:46:41Z,1964-01-01T00:00:00Z,,,1964-01-01T00:00:00Z,2008-11-04T00:00:00Z,6070,4285
4285,Angissoq,GRL,DMI,GIWS,Active,14.38,,59.9911,-45.1461,4,2024-11-28T14:46:41Z,1964-01-01T00:00:00Z,,,2008-11-04T00:00:00Z,2019-01-15T13:34:47Z,6070,4285
4285,Angissoq,GRL,DMI,GIWS,Active,14.38,16.13,59.9911,-45.1461,4,2024-11-28T14:46:41Z,1964-01-01T00:00:00Z,,,2019-01-15T13:34:47Z,,6070,4285
4301,Kap Morris Jesup,GRL,DMI,GIWS,Active,,,83.65,-33.3667,4,2024-11-28T14:46:41Z,1980-07-16T00:00:00Z,,,1980-07-16T00:00:00Z,2009-07-31T00:00:00Z,6070,4301
4301,Kap Morris Jesup,GRL,DMI,GIWS,Active,3,,83.6561,-33.3739,4,2024-11-28T14:46:41Z,1980-07-16T00:00:00Z,,,2009-07-31T00:00:00Z,2019-01-15T13:34:47Z,6070,4301
4301,Kap Morris Jesup,GRL,DMI,GIWS,Active,3,4,83.6561,-33.3739,4,2024-11-28T14:46:41Z,1980-07-16T00:00:00Z,,,2019-01-15T13:34:47Z,,6070,4301
4312,Station Nord,GRL,DMI,GIWS,Active,,,81.6,-16.65,4,2024-11-28T14:46:41Z,1978-01-01T00:00:00Z,,,1978-01-01T00:00:00Z,2009-03-04T00:00:00Z,6070,4312
4312,Station Nord,GRL,DMI,GIWS,Active,34,,81.6033,-16.6633,4,2024-11-28T14:46:41Z,1978-01-01T00:00:00Z,,,2009-03-04T00:00:00Z,2019-01-15T13:34:47Z,6070,4312
4312,Station Nord,GRL,DMI,GIWS,Active,34,36,81.6033,-16.6633,4,2024-11-28T14:46:41Z,1978-01-01T00:00:00Z,,,2019-01-15T13:34:47Z,,6070,4312
4313,Henrik Krøyer Holme,GRL,DMI,GIWS,Active,,,80.65,-13.7167,4,2024-11-28T14:46:41Z,1984-08-29T00:00:00Z,,,1984-08-29T00:00:00Z,2009-08-07T00:00:00Z,6070,4313
4313,Henrik Krøyer Holme,GRL,DMI,GIWS,Active,8,,80.6494,-13.7119,4,2024-11-28T14:46:41Z,1984-08-29T00:00:00Z,,,2009-08-07T00:00:00Z,2019-01-15T13:34:47Z,6070,4313
4313,Henrik Krøyer Holme,GRL,DMI,GIWS,Active,8,10,80.6494,-13.7119,4,2024-11-28T14:46:41Z,1984-08-29T00:00:00Z,,,2019-01-15T13:34:47Z,,6070,4313
4320,Danmarkshavn,GRL,DMI,Synop,Active,11,,76.7694,-18.6681,4,2024-11-28T14:46:41Z,1948-11-05T00:00:00Z,,,1948-11-05T00:00:00Z,2019-01-15T13:34:47Z,6070,4320
4320,Danmarkshavn,GRL,DMI,Synop,Active,11,12,76.7694,-18.6681,4,2024-11-28T14:46:41Z,1948-11-05T00:00:00Z,,,2019-01-15T13:34:47Z,,6070,4320
4330,Daneborg,GRL,DMI,GIWS,Active,,,74.3,-20.2167,4,2024-11-28T14:46:41Z,1946-08-01T00:00:00Z,,,1946-08-01T00:00:00Z,2009-08-10T00:00:00Z,6070,4330
4330,Daneborg,GRL,DMI,GIWS,Active,13,,74.3075,-20.2169,4,2024-11-28T14:46:41Z,1946-08-01T00:00:00Z,,,2009-08-10T00:00:00Z,2019-01-15T13:34:47Z,6070,4330
4330,Daneborg,GRL,DMI,GIWS,Active,13,15,74.3075,-20.2169,4,2024-11-28T14:46:41Z,1946-08-01T00:00:00Z,,,2019-01-15T13:34:47Z,,6070,4330
4339,Ittoqqortoormiit,GRL,DMI,Synop,Active,70,,70.4833,-21.95,4,2024-11-28T14:46:41Z,1980-11-01T00:00:00Z,,,1980-11-01T00:00:00Z,2005-08-17T00:00:00Z,6070,4339
4339,Ittoqqortoormiit,GRL,DMI,Synop,Active,70,,70.4844,-21.9511,4,2024-11-28T14:46:41Z,1980-11-01T00:00:00Z,,,2005-08-17T00:00:00Z,2019-01-15T13:34:47Z,6070,4339
4339,Ittoqqortoormiit,GRL,DMI,Synop,Active,70,71.46,70.4844,-21.9511,4,2024-11-28T14:46:41Z,1980-11-01T00:00:00Z,,,2019-01-15T13:34:47Z,,6070,4339
4341,Mittarfik Nerlerit Inaat,GRL,Mittafik/Grønlandske lufthavne,Synop,Active,14,,70.7431,-22.6506,4,2024-11-28T14:46:41Z,1985-10-01T00:00:00Z,,,1985-10-01T00:00:00Z,2019-01-15T13:34:47Z,6070,4341
4341,Mittarfik Nerlerit Inaat,GRL,Mittafik/Grønlandske lufthavne,Synop,Active,14,12,70.7431,-22.6506,4,2024-11-28T14:46:41Z,1985-10-01T00:00:00Z,,,2019-01-15T13:34:47Z,,6070,4341
4351,Aputiteeq,GRL,DMI,GIWS,Active,12,,67.7817,-32.2842,4,2024-11-28T14:46:41Z,1979-07-01T00:00:00Z,,,1979-07-01T00:00:00Z,2019-01-15T13:34:47Z,6070,4351
4351,Aputiteeq,GRL,DMI,GIWS,Active,12,14,67.7817,-32.2842,4,2024-11-28T14:46:41Z,1979-07-01T00:00:00Z,,,2019-01-15T13:34:47Z,,6070,4351
4360,Tasiilaq,GRL,DMI,Synop,Active,,,65.6,-37.6333,4,2024-11-28T14:46:41Z,1958-01-01T00:00:00Z,,,1958-01-01T00:00:00Z,1982-04-01T00:00:00Z,6070,4360
4360,Tasiilaq,GRL,DMI,Synop,Active,,,65.6,-37.6167,4,2024-11-28T14:46:41Z,1958-01-01T00:00:00Z,,,1982-04-01T00:00:00Z,2005-08-15T00:00:00Z,6070,4360
4360,Tasiilaq,GRL,DMI,Synop,Active,54,,65.6111,-37.6367,4,2024-11-28T14:46:41Z,1958-01-01T00:00:00Z,,,2005-08-15T00:00:00Z,2019-01-15T13:34:47Z,6070,4360
4360,Tasiilaq,GRL,DMI,Synop,Active,54,55.93,65.6111,-37.6367,4,2024-11-28T14:46:41Z,1958-01-01T00:00:00Z,,,2019-01-15T13:34:47Z,,6070,4360
4361,Mittarfik Kulusuk,GRL,Mittafik/Grønlandske lufthavne,Synop,Active,35,,65.5736,-37.1236,4,2024-11-28T14:46:41Z,1986-02-03T00:00:00Z,,,1986-02-03T00:00:00Z,2019-01-15T13:34:47Z,6070,4361
4361,Mittarfik Kulusuk,GRL,Mittafik/Grønlandske lufthavne,Synop,Active,35,37,65.5736,-37.1236,4,2024-11-28T14:46:41Z,1986-02-03T00:00:00Z,,,2019-01-15T13:34:47Z,,6070,4361
4373,Ikermit,GRL,DMI,GIWS,Active,78,,64.7833,-40.3,4,2024-11-28T14:46:41Z,1987-05-31T00:00:00Z,,,1987-05-31T00:00:00Z,2009-09-09T00:00:00Z,6070,4373
4373,Ikermit,GRL,DMI,GIWS,Active,78,,64.7819,-40.3017,4,2024-11-28T14:46:41Z,1987-05-31T00:00:00Z,,,2009-09-09T00:00:00Z,2019-01-15T13:34:47Z,6070,4373
4373,Ikermit,GRL,DMI,GIWS,Active,78,80,64.7819,-40.3017,4,2024-11-28T14:46:41Z,1987-05-31T00:00:00Z,,,2019-01-15T13:34:47Z,,6070,4373
4382,Ikermiuarssuk,GRL,DMI,GIWS,Active,39.59,,61.9367,-42.0675,4,2024-11-28T14:46:41Z,1980-06-18T00:00:00Z,,,1980-06-18T00:00:00Z,2010-08-17T00:00:00Z,6070,4382
4382,Ikermiuarssuk,GRL,DMI,GIWS,Active,39.59,,61.9364,-42.0678,4,2024-11-28T14:46:41Z,1980-06-18T00:00:00Z,,,2010-08-17T00:00:00Z,2019-01-15T13:34:47Z,6070,4382
4382,Ikermiuarssuk,GRL,DMI,GIWS,Active,39.59,41.61,61.9364,-42.0678,4,2024-11-28T14:46:41Z,1980-06-18T00:00:00Z,,,2019-01-15T13:34:47Z,2019-10-04T12:10:24Z,6070,4382
4382,Ikermiuarssuk,GRL,DMI,GIWS,Active,40,41.61,61.9364,-42.0678,4,2024-11-28T14:46:41Z,1980-06-18T00:00:00Z,,,2019-10-04T12:10:24Z,,6070,4382
4390,Ikerasassuaq,GRL,DMI,Synop,Active,,,60.0333,-43.1167,4,2024-11-28T14:46:41Z,1958-01-01T00:00:00Z,,,1958-01-01T00:00:00Z,1980-10-10T00:00:00Z,6070,4390
4390,Ikerasassuaq,GRL,DMI,Synop,Active,,,60.05,-43.1667,4,2024-11-28T14:46:41Z,1958-01-01T00:00:00Z,,,1980-10-10T00:00:00Z,1992-07-01T00:00:00Z,6070,4390
4390,Ikerasassuaq,GRL,DMI,Synop,Active,88,,60.0553,-43.1653,4,2024-11-28T14:46:41Z,1958-01-01T00:00:00Z,,,1992-07-01T00:00:00Z,2019-01-15T13:34:47Z,6070,4390
4390,Ikerasassuaq,GRL,DMI,Synop,Active,88,74.75,60.0553,-43.1653,4,2024-11-28T14:46:41Z,1958-01-01T00:00:00Z,,,2019-01-15T13:34:47Z,2021-06-23T08:47:21Z,6070,4390
4390,Ikerasassuaq,GRL,DMI,GIWS,Active,88,95,60.0553,-43.1653,4,2024-11-28T14:46:41Z,1958-01-01T00:00:00Z,,,2021-06-23T08:47:21Z,2021-12-16T12:34:00Z,6070,4390
4390,Ikerasassuaq,GRL,DMI,GIWS,Active,139.5,141,60.0553,-43.1653,4,2024-11-28T14:46:41Z,1958-01-01T00:00:00Z,,,2021-12-16T12:34:00Z,,6070,4390
4416,Summit,GRL,DMI,GIWS,Active,3220,,72.5833,-38.45,4,2024-11-28T14:46:41Z,1997-08-22T00:00:00Z,2019-10-11T00:00:00Z,,1997-08-22T00:00:00Z,2019-01-15T13:34:47Z,6070,4416
4416,Summit,GRL,DMI,GIWS,Active,3220,3207,72.5833,-38.45,4,2024-11-28T14:46:41Z,1997-08-22T00:00:00Z,2019-10-11T00:00:00Z,,2019-01-15T13:34:47Z,2019-10-11T00:00:00Z,6070,4416
4416,Summit,GRL,DMI,GIWS,Inactive,3220,3207,72.5833,-38.45,4,2024-11-28T14:46:41Z,1997-08-22T00:00:00Z,2019-10-11T00:00:00Z,,2019-10-11T00:00:00Z,,6070,4416
5005,Uggerby,DNK,DMI,Pluvio,Active,8,,57.5705,10.1074,6,2024-11-28T14:46:41Z,2009-12-16T00:00:00Z,,,2009-12-16T00:00:00Z,,,
5009,Nørre Lyngby N,DNK,DMI,Pluvio,Active,22,,57.4185,9.7607,6,2024-11-28T14:46:41Z,2010-04-13T00:00:00Z,,,2010-04-13T00:00:00Z,2021-09-20T09:05:25Z,,
5009,Nørre Lyngby N,DNK,DMI,Pluvio,Active,22,,57.4219,9.7612,6,2024-11-28T14:46:41Z,2010-04-13T00:00:00Z,,,2021-09-20T09:05:25Z,,,
5015,Lendum,DNK,DMI,Pluvio,Active,61,,57.4029,10.2704,6,2024-11-28T14:46:41Z,2009-12-16T00:00:00Z,,,2009-12-16T00:00:00Z,,,
5031,Byrum,DNK,DMI,Pluvio,Active,5,,57.2746,11.0292,6,2024-11-28T14:46:41Z,2010-04-13T00:00:00Z,,,2010-04-13T00:00:00Z,,,
5035,Voerså Hede,DNK,DMI,Pluvio,Active,22,,57.2215,10.471,6,2024-11-28T14:46:41Z,2009-12-16T00:00:00Z,,,2009-12-16T00:00:00Z,,,
5042,Møllegård Huse,DNK,DMI,Pluvio,Active,7,,56.9564,10.2232,6,2024-11-28T14:46:41Z,2014-10-30T00:00:00Z,,,2014-10-30T00:00:00Z,,,
5065,Mørkeskov,DNK,DMI,Pluvio,Active,85,,56.8136,9.8247,6,2024-11-28T14:46:41Z,2009-12-15T00:00:00Z,,,2009-12-15T00:00:00Z,2011-11-02T00:00:00Z,,
5065,Mørkeskov,DNK,DMI,Pluvio,Active,85,,56.814,9.8245,6,2024-11-28T14:46:41Z,2009-12-15T00:00:00Z,,,2011-11-02T00:00:00Z,,,
5070,Havnø,DNK,DMI,Pluvio,Active,2,,56.7157,10.1644,6,2024-11-28T14:46:41Z,2009-12-15T00:00:00Z,,,2009-12-15T00:00:00Z,,,
5075,Hørby,DNK,DMI,Pluvio,Active,,,56.6646,9.7204,6,2024-11-28T14:46:41Z,2009-12-15T00:00:00Z,,,2009-12-15T00:00:00Z,2011-11-02T00:00:00Z,,
5075,Hannerup,DNK,DMI,Pluvio,Active,48,,56.6509,9.7012,6,2024-11-28T14:46:41Z,2009-12-15T00:00:00Z,,,2011-11-02T00:00:00Z,,,
5081,Gatten,DNK,DMI,Pluvio,Active,22,,56.879,9.4041,6,2024-11-28T14:46:41Z,2010-04-13T00:00:00Z,,,2010-04-13T00:00:00Z,,,
5085,Aggersund,DNK,DMI,Pluvio,Active,8,,57.0143,9.2889,6,2024-11-28T14:46:41Z,2009-12-16T00:00:00Z,,,2009-12-16T00:00:00Z,2014-10-29T00:00:00Z,,
5085,Aggersund,DNK,DMI,Pluvio,Active,8,,57.0143,9.2877,6,2024-11-28T14:46:41Z,2009-12-16T00:00:00Z,,,2014-10-29T00:00:00Z,,,
5089,Lild Strand,DNK,DMI,Pluvio,Active,6,,57.1518,8.9649,6,2024-11-28T14:46:41Z,2010-04-13T00:00:00Z,,,2010-04-13T00:00:00Z,,,
5095,Nørre Vorupør,DNK,DMI,Pluvio,Active,16,,56.9514,8.3774,6,2024-11-28T14:46:41Z,2009-12-15T00:00:00Z,,,2009-12-15T00:00:00Z,2011-02-22T00:00:00Z,,
5095,Nørre Vorupør,DNK,DMI,Pluvio,Active,16,,56.951,8.3769,6,2024-11-28T14:46:41Z,2009-12-15T00:00:00Z,,,2011-02-22T00:00:00Z,,,
5105,Erslev,DNK,DMI,Pluvio,Active,26,,56.8334,8.7296,6,2024-11-28T14:46:41Z,2009-12-15T00:00:00Z,,,2009-12-15T00:00:00Z,,,
5109,Junget,DNK,DMI,Pluvio,Active,21,,56.7637,9.0945,6,2024-11-28T14:46:41Z,2010-04-13T00:00:00Z,,,2010-04-13T00:00:00Z,,,
5135,Grønbæk,DNK,DMI,Pluvio,Active,25,,56.2763,9.6213,6,2024-11-28T14:46:41Z,2010-01-18T00:00:00Z,,,2010-01-18T00:00:00Z,,,
5140,Hald,DNK,DMI,Pluvio,Active,75,,56.5665,10.1004,6,2024-11-28T14:46:41Z,2009-12-14T00:00:00Z,,,2009-12-14T00:00:00Z,,,
5150,Hevringholm,DNK,DMI,Pluvio,Active,12,,56.5062,10.4403,6,2024-11-28T14:46:41Z,2009-12-14T00:00:00Z,,,2009-12-14T00:00:00Z,,,
5160,Sibirien,DNK,DMI,Pluvio,Active,14,,56.1103,10.5466,6,2024-11-28T14:46:41Z,2009-12-14T00:00:00Z,,,2009-12-14T00:00:00Z,,,
5165,Tranebjerg Øst,DNK,DMI,Pluvio,Active,18,,55.8322,10.6185,6,2024-11-28T14:46:41Z,2010-11-18T00:00:00Z,,,2010-11-18T00:00:00Z,,,
5169,Hov,DNK,DMI,Pluvio,Active,,,55.9126,10.2535,6,2024-11-28T14:46:41Z,2010-04-12T00:00:00Z,,,2010-04-12T00:00:00Z,2011-02-24T00:00:00Z,,
5169,Hov,DNK,DMI,Pluvio,Active,2,,55.9117,10.2565,6,2024-11-28T14:46:41Z,2010-04-12T00:00:00Z,,,2011-02-24T00:00:00Z,2023-01-31T11:50:40Z,,
5169,Hov,DNK,DMI,Pluvio,Active,2,,55.9115,10.253,6,2024-11-28T14:46:41Z,2010-04-12T00:00:00Z,,,2023-01-31T11:50:40Z,2023-01-31T12:16:25Z,,
5169,Hov,DNK,DMI,Pluvio,Active,1.5,,55.9115,10.253,6,2024-11-28T14:46:41Z,2010-04-12T00:00:00Z,,,2023-01-31T12:16:25Z,,,
5185,Flensted,DNK,DMI,Pluvio,Active,96,,56.1496,9.7877,6,2024-11-28T14:46:41Z,2009-12-14T00:00:00Z,2024-10-29T00:00:00Z,,2009-12-14T00:00:00Z,2015-07-20T00:00:00Z,,
5185,Flensted,DNK,DMI,Pluvio,Active,96,,56.1496,9.7875,6,2024-11-28T14:46:41Z,2009-12-14T00:00:00Z,2024-10-29T00:00:00Z,,2015-07-20T00:00:00Z,2024-10-29T00:00:00Z,,
5185,Flensted,DNK,DMI,Pluvio,Inactive,96,,56.1496,9.7875,6,2024-11-28T14:46:41Z,2009-12-14T00:00:00Z,2024-10-29T00:00:00Z,,2024-10-29T00:00:00Z,,,
5199,Gludsted Plantage Nv,DNK,DMI,Pluvio,Active,85,,56.0761,9.3298,6,2024-11-28T14:46:41Z,2013-09-17T00:00:00Z,,,2013-09-17T00:00:00Z,,,
5202,Nørre Snede,DNK,DMI,Pluvio,Active,91,,55.9603,9.3768,6,2024-11-28T14:46:41Z,2011-10-17T00:00:00Z,,,2011-10-17T00:00:00Z,,,
5205,Vestbirk,DNK,DMI,Pluvio,Active,56,,55.961,9.7022,6,2024-11-28T14:46:41Z,2009-12-14T00:00:00Z,,,2009-12-14T00:00:00Z,,,
5220,Juelsminde,DNK,DMI,Pluvio,Active,24,,55.7102,9.9962,6,2024-11-28T14:46:41Z,2009-12-14T00:00:00Z,,,2009-12-14T00:00:00Z,,,
5225,Hesselballe,DNK,DMI,Pluvio,Active,69,,55.8314,9.5533,6,2024-11-28T14:46:41Z,2009-12-14T00:00:00Z,,,2009-12-14T00:00:00Z,2011-11-02T00:00:00Z,,
5225,Hesselballe,DNK,DMI,Pluvio,Active,69,,55.8311,9.5531,6,2024-11-28T14:46:41Z,2009-12-14T00:00:00Z,,,2011-11-02T00:00:00Z,,,
5269,Blåhøj Kirkeby,DNK,DMI,Pluvio,Active,52,,55.8528,9.0163,6,2024-11-28T14:46:41Z,2010-04-13T00:00:00Z,,,2010-04-13T00:00:00Z,2011-02-21T00:00:00Z,,
5269,Blåhøj Kirkeby,DNK,DMI,Pluvio,Active,52,,55.8528,9.0162,6,2024-11-28T14:46:41Z,2010-04-13T00:00:00Z,,,2011-02-21T00:00:00Z,,,
5272,Brande,DNK,DMI,Pluvio,Active,48,,55.9654,9.1168,6,2024-11-28T14:46:41Z,2011-10-17T00:00:00Z,,,2011-10-17T00:00:00Z,,,
5276,Voulund Testfelt P,DNK,DMI,Pluvio,Active,67,,56.0372,9.1594,6,2024-11-28T14:46:41Z,2009-04-16T00:00:00Z,2024-07-31T00:00:00Z,,2009-04-16T00:00:00Z,2024-07-31T00:00:00Z,,
5276,Voulund Testfelt P,DNK,DMI,Pluvio,Inactive,67,,56.0372,9.1594,6,2024-11-28T14:46:41Z,2009-04-16T00:00:00Z,2024-07-31T00:00:00Z,,2024-07-31T00:00:00Z,,,
5277,Høgild,DNK,DMI,Pluvio,Active,43,,56.0626,8.9854,6,2024-11-28T14:46:41Z,2011-10-17T00:00:00Z,,,2011-10-17T00:00:00Z,,,
5290,Hvidbjerg,DNK,DMI,Pluvio,Active,,,56.6489,8.5246,6,2024-11-28T14:46:41Z,2009-12-14T00:00:00Z,,,2009-12-14T00:00:00Z,2010-05-04T00:00:00Z,,
5290,Semb,DNK,DMI,Pluvio,Active,23,,56.6553,8.5476,6,2024-11-28T14:46:41Z,2009-12-14T00:00:00Z,,,2010-05-04T00:00:00Z,,,
5296,Trans,DNK,DMI,Pluvio,Active,15,,56.5032,8.1465,6,2024-11-28T14:46:41Z,2012-06-12T00:00:00Z,,,2012-06-12T00:00:00Z,,,
5300,Øby,DNK,DMI,Pluvio,Active,3,,56.2604,8.1659,6,2024-11-28T14:46:41Z,2009-12-14T00:00:00Z,,,2009-12-14T00:00:00Z,2011-10-28T00:00:00Z,,
5300,Øby,DNK,DMI,Pluvio,Active,3,,56.2601,8.1653,6,2024-11-28T14:46:41Z,2009-12-14T00:00:00Z,,,2011-10-28T00:00:00Z,,,
5305,Grønbjerg,DNK,DMI,Pluvio,Active,35,,56.1828,8.4716,6,2024-11-28T14:46:41Z,2009-12-14T00:00:00Z,,,2009-12-14T00:00:00Z,2015-07-20T00:00:00Z,,
5305,Grønbjerg,DNK,DMI,Pluvio,Active,35,,56.1826,8.4712,6,2024-11-28T14:46:41Z,2009-12-14T00:00:00Z,,,2015-07-20T00:00:00Z,2021-01-25T10:04:02Z,,
5305,Grønbjerg,DNK,DMI,Pluvio,Active,35,,56.1789,8.4795,6,2024-11-28T14:46:41Z,2009-12-14T00:00:00Z,,,2021-01-25T10:04:02Z,2021-05-28T09:54:27Z,,
5305,Grønbjerg,DNK,DMI,Pluvio,Active,35,,56.1837,8.4871,6,2024-11-28T14:46:41Z,2009-12-14T00:00:00Z,,,2021-05-28T09:54:27Z,,,
5320,Skovlund,DNK,DMI,Pluvio,Active,38,,55.7246,8.6933,6,2024-11-28T14:46:41Z,2009-12-09T00:00:00Z,,,2009-12-09T00:00:00Z,2011-02-23T00:00:00Z,,
5320,Skovlund,DNK,DMI,Pluvio,Active,38,,55.7247,8.6933,6,2024-11-28T14:46:41Z,2009-12-09T00:00:00Z,,,2011-02-23T00:00:00Z,2011-10-28T00:00:00Z,,
5320,Skovlund,DNK,DMI,Pluvio,Active,38,,55.7246,8.6932,6,2024-11-28T14:46:41Z,2009-12-09T00:00:00Z,,,2011-10-28T00:00:00Z,,,
5329,Outrup,DNK,DMI,Pluvio,Active,,,55.7199,8.3425,6,2024-11-28T14:46:41Z,2010-04-13T00:00:00Z,,,2010-04-13T00:00:00Z,2012-10-25T00:00:00Z,,
5329,Outrup,DNK,DMI,Pluvio,Active,18,,55.723,8.3327,6,2024-11-28T14:46:41Z,2010-04-13T00:00:00Z,,,2012-10-25T00:00:00Z,,,
5343,Holsted,DNK,DMI,Pluvio,Active,35,,55.4929,8.9036,6,2024-11-28T14:46:41Z,2013-07-24T00:00:00Z,,,2013-07-24T00:00:00Z,,,
5345,Ribe Renseanlæg,DNK,DMI,Pluvio,Active,3,,55.3286,8.7433,6,2024-11-28T14:46:41Z,2009-12-09T00:00:00Z,,,2009-12-09T00:00:00Z,2011-09-27T00:00:00Z,,
5345,Ribe Renseanlæg,DNK,DMI,Pluvio,Active,3,,55.329,8.7436,6,2024-11-28T14:46:41Z,2009-12-09T00:00:00Z,,,2011-09-27T00:00:00Z,,,
5350,Bredebro,DNK,DMI,Pluvio,Active,6,,55.0561,8.8326,6,2024-11-28T14:46:41Z,2009-12-09T00:00:00Z,,,2009-12-09T00:00:00Z,2011-02-23T00:00:00Z,,
5350,Bredebro,DNK,DMI,Pluvio,Active,6,,55.0562,8.8327,6,2024-11-28T14:46:41Z,2009-12-09T00:00:00Z,,,2011-02-23T00:00:00Z,,,
5355,Emmerlev Klev,DNK,DMI,Pluvio,Active,8,,54.9872,8.6652,6,2024-11-28T14:46:41Z,2009-12-09T00:00:00Z,,,2009-12-09T00:00:00Z,,,
5365,Kliplev,DNK,DMI,Pluvio,Active,,,54.9377,9.4092,6,2024-11-28T14:46:41Z,2009-12-09T00:00:00Z,,,2009-12-09T00:00:00Z,2011-09-28T00:00:00Z,,
5365,Kliplev,DNK,DMI,Pluvio,Active,44,,54.9316,9.4116,6,2024-11-28T14:46:41Z,2009-12-09T00:00:00Z,,,2011-09-28T00:00:00Z,,,
5375,Nørreløkke,DNK,DMI,Pluvio,Active,8,,55.0646,9.6811,6,2024-11-28T14:46:41Z,2009-12-09T00:00:00Z,,,2009-12-09T00:00:00Z,2011-09-28T00:00:00Z,,
5375,Nørreløkke,DNK,DMI,Pluvio,Active,8,,55.0646,9.68,6,2024-11-28T14:46:41Z,2009-12-09T00:00:00Z,,,2011-09-28T00:00:00Z,,,
5381,Rangstrup,DNK,DMI,Pluvio,Active,52,,55.147,9.2058,6,2024-11-28T14:46:41Z,2010-04-13T00:00:00Z,,,2010-04-13T00:00:00Z,2015-07-21T00:00:00Z,,
5381,Rangstrup,DNK,DMI,Pluvio,Active,52,,55.147,9.2057,6,2024-11-28T14:46:41Z,2010-04-13T00:00:00Z,,,2015-07-21T00:00:00Z,,,
5384,Vojens Airport,DNK,DMI,Pluvio,Active,42.5,,55.2217,9.292,,2024-11-28T14:46:41Z,2024-11-05T07:24:53Z,,,2024-10-07T09:03:53Z,,,
5395,Hajstrup,DNK,DMI,Pluvio,Active,23,,55.2555,9.6684,6,2024-11-28T14:46:41Z,2009-12-09T00:00:00Z,,,2009-12-09T00:00:00Z,,,
5400,Båring,DNK,DMI,Pluvio,Active,63,,55.4927,9.8949,6,2024-11-28T14:46:41Z,2009-12-09T00:00:00Z,,,2009-12-09T00:00:00Z,2011-11-04T00:00:00Z,,
5400,Båring,DNK,DMI,Pluvio,Active,63,,55.4935,9.8953,6,2024-11-28T14:46:41Z,2009-12-09T00:00:00Z,,,2011-11-04T00:00:00Z,,,
5406,Tørresø,DNK,DMI,Pluvio,Active,3,,55.5815,10.393,6,2024-11-28T14:46:41Z,2014-10-28T00:00:00Z,,,2014-10-28T00:00:00Z,,,
5408,H. C. Andersen Airport,DNK,DMI,Pluvio,Active,14,,55.4749,10.3305,6,2024-11-28T14:46:41Z,2018-11-26T00:00:00Z,,,2018-11-26T00:00:00Z,,,
5435,Bøjden,DNK,DMI,Pluvio,Active,23,,55.0977,10.1025,6,2024-11-28T14:46:41Z,2009-12-09T00:00:00Z,,,2009-12-09T00:00:00Z,2011-11-01T00:00:00Z,,
5435,Bøjden,DNK,DMI,Pluvio,Active,23,,55.0978,10.1009,6,2024-11-28T14:46:41Z,2009-12-09T00:00:00Z,,,2011-11-01T00:00:00Z,,,
5440,Ulbølle,DNK,DMI,Pluvio,Active,,,55.0741,10.4211,6,2024-11-28T14:46:41Z,2009-12-09T00:00:00Z,,,2009-12-09T00:00:00Z,2011-11-01T00:00:00Z,,
5440,Ulbølle,DNK,DMI,Pluvio,Active,26,,55.0721,10.4249,6,2024-11-28T14:46:41Z,2009-12-09T00:00:00Z,,,2011-11-01T00:00:00Z,,,
5450,Søndenbro,DNK,DMI,Pluvio,Active,7,,54.7567,10.7094,6,2024-11-28T14:46:41Z,2009-12-09T00:00:00Z,,,2009-12-09T00:00:00Z,,,
5455,Rudkøbing,DNK,DMI,Pluvio,Active,8,,54.9463,10.7234,6,2024-11-28T14:46:41Z,2009-12-09T00:00:00Z,,,2009-12-09T00:00:00Z,,,
5469,Rosilde,DNK,DMI,Pluvio,Active,8,,55.3041,10.7279,6,2024-11-28T14:46:41Z,2010-04-13T00:00:00Z,,,2010-04-13T00:00:00Z,2015-11-19T00:00:00Z,,
5469,Rosilde,DNK,DMI,Pluvio,Active,8,,55.3041,10.728,6,2024-11-28T14:46:41Z,2010-04-13T00:00:00Z,,,2015-11-19T00:00:00Z,2020-08-19T08:10:47Z,,
5469,Rosilde,DNK,DMI,Pluvio,Active,8,,55.3474,10.7618,6,2024-11-28T14:46:41Z,2010-04-13T00:00:00Z,,,2020-08-19T08:10:47Z,2020-08-20T08:22:42Z,,
5469,Juelsberg,DNK,DMI,Pluvio,Active,8,,55.3474,10.7618,6,2024-11-28T14:46:41Z,2010-04-13T00:00:00Z,,,2020-08-20T08:22:42Z,,,
5499,Mulstrup,DNK,DMI,Pluvio,Active,39,,55.4069,11.8623,6,2024-11-28T14:46:41Z,2010-04-13T00:00:00Z,,,2010-04-13T00:00:00Z,2011-06-21T00:00:00Z,,
5499,Mulstrup,DNK,DMI,Pluvio,Active,39,,55.4069,11.8621,6,2024-11-28T14:46:41Z,2010-04-13T00:00:00Z,,,2011-06-21T00:00:00Z,2021-06-14T08:13:23Z,,
5499,Mulstrup,DNK,DMI,Pluvio,Active,39,,55.4026,11.8648,6,2024-11-28T14:46:41Z,2010-04-13T00:00:00Z,,,2021-06-14T08:13:23Z,,,
5505,Tåstrup Huse,DNK,DMI,Pluvio,Active,37,,55.5633,11.709,6,2024-11-28T14:46:41Z,2009-12-08T00:00:00Z,2023-08-16T00:00:00Z,,2009-12-08T00:00:00Z,2023-08-16T00:00:00Z,,
5505,Tåstrup Huse,DNK,DMI,Pluvio,Inactive,37,,55.5633,11.709,6,2024-11-28T14:46:41Z,2009-12-08T00:00:00Z,2023-08-16T00:00:00Z,,2023-08-16T00:00:00Z,,,
5510,Rye,DNK,DMI,Pluvio,Active,8,,55.5271,11.238,6,2024-11-28T14:46:41Z,2009-12-08T00:00:00Z,,,2009-12-08T00:00:00Z,2011-09-22T00:00:00Z,,
5510,Rye,DNK,DMI,Pluvio,Active,8,,55.5266,11.2383,6,2024-11-28T14:46:41Z,2009-12-08T00:00:00Z,,,2011-09-22T00:00:00Z,2022-12-16T08:04:04Z,,
5510,Rye,DNK,DMI,Pluvio,Active,8,,55.5183,11.2329,6,2024-11-28T14:46:41Z,2009-12-08T00:00:00Z,,,2022-12-16T08:04:04Z,2024-11-14T16:09:33Z,,
5510,Rye,DNK,DMI,Pluvio,Active,8,,55.5184,11.2328,6,2024-11-28T14:46:41Z,2009-12-08T00:00:00Z,,,2024-11-14T16:09:33Z,,,
5529,Havnsø,DNK,DMI,Pluvio,Active,,,55.7521,11.3309,6,2024-11-28T14:46:41Z,2010-04-13T00:00:00Z,,,2010-04-13T00:00:00Z,2011-09-22T00:00:00Z,,
5529,Havnsø,DNK,DMI,Pluvio,Active,9,,55.7489,11.3374,6,2024-11-28T14:46:41Z,2010-04-13T00:00:00Z,,,2011-09-22T00:00:00Z,,,
5537,Mørkøv Syd,DNK,DMI,Pluvio,Active,35,,55.6366,11.4942,6,2024-11-28T14:46:41Z,2012-03-01T00:00:00Z,,,2012-03-01T00:00:00Z,,,
5545,Kollekolle,DNK,DMI,Pluvio,Active,29,,55.8689,11.6053,6,2024-11-28T14:46:41Z,2009-12-08T00:00:00Z,,,2009-12-08T00:00:00Z,2015-07-22T00:00:00Z,,
5545,Kollekolle,DNK,DMI,Pluvio,Active,29,,55.8687,11.6064,6,2024-11-28T14:46:41Z,2009-12-08T00:00:00Z,,,2015-07-22T00:00:00Z,,,
5575,Græsted,DNK,DMI,Pluvio,Active,36,,56.0428,12.292,6,2024-11-28T14:46:41Z,2009-12-08T00:00:00Z,,,2009-12-08T00:00:00Z,2011-09-19T00:00:00Z,,
5575,Græsted,DNK,DMI,Pluvio,Active,36,,56.0429,12.2918,6,2024-11-28T14:46:41Z,2009-12-08T00:00:00Z,,,2011-09-19T00:00:00Z,,,
5735,Botanisk Have,DNK,DMI,Pluvio,Active,6,,55.6878,12.5742,6,2024-11-28T14:46:41Z,2010-01-14T00:00:00Z,,,2010-01-14T00:00:00Z,2012-07-24T00:00:00Z,,
5735,Botanisk Have,DNK,DMI,Pluvio,Active,6,,55.6877,12.5739,6,2024-11-28T14:46:41Z,2010-01-14T00:00:00Z,,,2012-07-24T00:00:00Z,2019-10-07T14:38:08Z,,
5735,Botanisk Have,DNK,DMI,Pluvio,Active,6,,55.6858,12.5768,6,2024-11-28T14:46:41Z,2010-01-14T00:00:00Z,,,2019-10-07T14:38:08Z,2019-10-25T10:54:22Z,,
5735,Livgardens Kaserne,DNK,DMI,Pluvio,Active,6,,55.6858,12.5768,6,2024-11-28T14:46:41Z,2010-01-14T00:00:00Z,,,2019-10-25T10:54:22Z,,,
5880,Møllebjerggård,DNK,DMI,Pluvio,Active,37,,55.2932,12.4223,6,2024-11-28T14:46:41Z,2009-12-08T00:00:00Z,,,2009-12-08T00:00:00Z,2011-11-11T00:00:00Z,,
5880,Møllebjerggård,DNK,DMI,Pluvio,Active,37,,55.2931,12.4218,6,2024-11-28T14:46:41Z,2009-12-08T00:00:00Z,,,2011-11-11T00:00:00Z,,,
5889,Orup,DNK,DMI,Pluvio,Active,38,,55.2075,12.098,6,2024-11-28T14:46:41Z,2010-04-13T00:00:00Z,,,2010-04-13T00:00:00Z,2011-06-21T00:00:00Z,,
5889,Orup,DNK,DMI,Pluvio,Active,38,,55.2076,12.0981,6,2024-11-28T14:46:41Z,2010-04-13T00:00:00Z,,,2011-06-21T00:00:00Z,,,
5935,Køng,DNK,DMI,Pluvio,Active,4,,55.0983,11.8285,6,2024-11-28T14:46:41Z,2009-12-08T00:00:00Z,,,2009-12-08T00:00:00Z,2011-06-21T00:00:00Z,,
5935,Køng,DNK,DMI,Pluvio,Active,4,,55.0987,11.8285,6,2024-11-28T14:46:41Z,2009-12-08T00:00:00Z,,,2011-06-21T00:00:00Z,,,
5945,Nørreby,DNK,DMI,Pluvio,Active,13,,54.9798,11.5336,6,2024-11-28T14:46:41Z,2009-12-08T00:00:00Z,,,2009-12-08T00:00:00Z,2012-03-13T00:00:00Z,,
5945,Nørreby,DNK,DMI,Pluvio,Active,13,,54.98,11.5336,6,2024-11-28T14:46:41Z,2009-12-08T00:00:00Z,,,2012-03-13T00:00:00Z,,,
5960,Nakskov,DNK,DMI,Pluvio,Active,,,54.826,11.1541,6,2024-11-28T14:46:41Z,2009-12-08T00:00:00Z,2019-04-23T00:00:00Z,,2009-12-08T00:00:00Z,2011-06-20T00:00:00Z,,
5960,Nakskov,DNK,DMI,Pluvio,Active,2,,54.8238,11.1539,6,2024-11-28T14:46:41Z,2009-12-08T00:00:00Z,2019-04-23T00:00:00Z,,2011-06-20T00:00:00Z,2019-04-23T00:00:00Z,,
5960,Nakskov,DNK,DMI,Pluvio,Inactive,2,,54.8238,11.1539,6,2024-11-28T14:46:41Z,2009-12-08T00:00:00Z,2019-04-23T00:00:00Z,,2019-04-23T00:00:00Z,,,
5970,Rødbyhavn,DNK,DMI,Pluvio,Active,2,,54.6573,11.3515,6,2024-11-28T14:46:41Z,2009-12-21T00:00:00Z,,,2009-12-21T00:00:00Z,,,
5981,Bjørup,DNK,DMI,Pluvio,Active,21,,54.7793,11.931,,2024-11-28T14:46:41Z,2023-02-23T00:00:00Z,,,2023-02-22T17:23:13Z,2024-11-14T16:10:19Z,,
5981,Bjørup,DNK,DMI,Pluvio,Active,21,,54.7793,11.9312,,2024-11-28T14:46:41Z,2023-02-23T00:00:00Z,,,2024-11-14T16:10:19Z,,,
5986,Ny Borre,DNK,DMI,Pluvio,Active,,,54.9922,12.4538,6,2024-11-28T14:46:41Z,2010-04-13T00:00:00Z,,,2010-04-13T00:00:00Z,2011-06-20T00:00:00Z,,
5986,Ny Borre,DNK,DMI,Pluvio,Active,,,54.9923,12.4537,6,2024-11-28T14:46:41Z,2010-04-13T00:00:00Z,,,2011-06-20T00:00:00Z,2012-09-27T00:00:00Z,,
5986,Borre,DNK,DMI,Pluvio,Active,2,,54.9963,12.444,6,2024-11-28T14:46:41Z,2010-04-13T00:00:00Z,,,2012-09-27T00:00:00Z,2021-06-08T19:04:05Z,,
5986,Neble,DNK,DMI,Pluvio,Active,2,,54.96,12.24,6,2024-11-28T14:46:41Z,2010-04-13T00:00:00Z,,,2021-06-08T19:04:05Z,,,
5994,Østerlars,DNK,DMI,Pluvio,Active,94,,55.163,14.9683,6,2024-11-28T14:46:41Z,2010-04-13T00:00:00Z,,,2010-04-13T00:00:00Z,,,
6007,Nolsoy,FRO,Havne Kommuner mv,Synop,Active,94.5,95.8,61.958,-6.617,,2024-11-28T14:46:41Z,2022-05-25T00:00:00Z,,,2022-05-25T00:00:00Z,,,
6008,Frodba Heliport,FRO,Havne Kommuner mv,Synop,Active,23.47,,61.5437,-6.7745,6,2024-11-28T14:46:41Z,2009-05-18T00:00:00Z,,,2009-05-18T00:00:00Z,2020-12-14T14:16:37Z,6080,6008
6008,Frodba Heliport,FRO,Havne Kommuner mv,Synop,Active,23,,61.5437,-6.7745,6,2024-11-28T14:46:41Z,2009-05-18T00:00:00Z,,,2020-12-14T14:16:37Z,2024-11-22T13:54:46Z,6080,6008
6008,Frodba Heliport,FRO,Havne Kommuner mv,Synop,Active,23.47,,61.5437,-6.7745,6,2024-11-28T14:46:41Z,2009-05-18T00:00:00Z,,,2024-11-22T13:54:46Z,,6080,6008
6009,Akraberg Fyr,FRO,Havne Kommuner mv,Synop,Active,99,,61.3957,-6.6818,6,2024-11-28T14:46:41Z,1996-03-20T00:00:00Z,,,1996-03-20T00:00:00Z,2024-05-28T07:42:58Z,6080,6009
6009,Akraberg Fyr,FRO,Havne Kommuner mv,Synop,Active,89.6,91.07,61.3957,-6.6818,6,2024-11-28T14:46:41Z,1996-03-20T00:00:00Z,,,2024-05-28T07:42:58Z,2024-06-14T08:47:21Z,6080,6009
6009,Sudur,FRO,Havne Kommuner mv,Synop,Active,89.6,91.07,61.3957,-6.6818,6,2024-11-28T14:46:41Z,1996-03-20T00:00:00Z,,,2024-06-14T08:47:21Z,,6080,6009
6011,Torshavn,FRO,Havne Kommuner mv,Synop,Active,54,,62.0232,-6.7644,6,2024-11-28T14:46:41Z,1967-03-19T00:00:00Z,,,1967-03-19T00:00:00Z,2020-08-03T07:46:27Z,6080,6011
6011,Torshavn,FRO,Havne Kommuner mv,Synop,Active,54,55.9,62.0232,-6.7644,6,2024-11-28T14:46:41Z,1967-03-19T00:00:00Z,,,2020-08-03T07:46:27Z,2024-05-28T07:39:14Z,6080,6011
6011,Torshavn,FRO,Havne Kommuner mv,Synop,Active,54.24,55.46,62.0232,-6.7644,6,2024-11-28T14:46:41Z,1967-03-19T00:00:00Z,,,2024-05-28T07:39:14Z,2024-06-14T08:48:40Z,6080,6011
6011,Havn,FRO,Havne Kommuner mv,Synop,Active,54.24,55.46,62.0232,-6.7644,6,2024-11-28T14:46:41Z,1967-03-19T00:00:00Z,,,2024-06-14T08:48:40Z,,6080,6011
6012,Kirkja,FRO,Havne Kommuner mv,Synop,Active,54,,62.3195,-6.3205,6,2024-11-28T14:46:41Z,1999-05-14T00:00:00Z,,,1999-05-14T00:00:00Z,2024-05-28T07:48:20Z,6080,6012
6012,Kirkja,FRO,Havne Kommuner mv,Synop,Active,54.05,55.51,62.3195,-6.3205,6,2024-11-28T14:46:41Z,1999-05-14T00:00:00Z,,,2024-05-28T07:48:20Z,2024-06-14T08:50:20Z,6080,6012
6012,Fugloy,FRO,Havne Kommuner mv,Synop,Active,54.05,55.51,62.3195,-6.3205,6,2024-11-28T14:46:41Z,1999-05-14T00:00:00Z,,,2024-06-14T08:50:20Z,2024-11-22T13:54:59Z,6080,6012
6012,Fugloy,FRO,Havne Kommuner mv,Synop,Active,54,55.51,62.3195,-6.3205,6,2024-11-28T14:46:41Z,1999-05-14T00:00:00Z,,,2024-11-22T13:54:59Z,,6080,6012
6013,Klaksvik Heliport,FRO,Havne Kommuner mv,Synop,Active,80.162,,62.2178,-6.5766,6,2024-11-28T14:46:41Z,2009-05-18T00:00:00Z,,,2009-05-18T00:00:00Z,2020-12-14T14:18:31Z,6080,6013
6013,Klaksvik Heliport,FRO,Havne Kommuner mv,Synop,Active,80,,62.2178,-6.5766,6,2024-11-28T14:46:41Z,2009-05-18T00:00:00Z,,,2020-12-14T14:18:31Z,2024-11-22T13:54:41Z,6080,6013
6013,Klaksvik Heliport,FRO,Havne Kommuner mv,Synop,Active,80.162,,62.2178,-6.5766,6,2024-11-28T14:46:41Z,2009-05-18T00:00:00Z,,,2024-11-22T13:54:41Z,,6080,6013
6014,Eioi,FRO,Havne Kommuner mv,Synop,Active,176.4,174,62.2995,-7.074,,2024-11-28T14:46:41Z,2022-05-25T00:00:00Z,,,2022-05-25T00:00:00Z,2024-05-28T07:51:28Z,,
6014,Eioi,FRO,Havne Kommuner mv,Synop,Active,176.5,177.36,62.2995,-7.074,,2024-11-28T14:46:41Z,2022-05-25T00:00:00Z,,,2024-05-28T07:51:28Z,2024-06-14T08:51:00Z,,
6014,Eidi,FRO,Havne Kommuner mv,Synop,Active,176.5,177.36,62.2995,-7.074,,2024-11-28T14:46:41Z,2022-05-25T00:00:00Z,,,2024-06-14T08:51:00Z,,,
6019,Silstrup,DNK,DMI,Synop,Active,42,,56.93,8.6412,6,2024-11-28T14:46:41Z,2002-03-22T00:00:00Z,,,2002-03-22T00:00:00Z,,6080,6019
6030,Flyvestation Ålborg,DNK,Forsvaret,Synop,Active,3,,57.0963,9.8505,6,2024-11-28T14:46:41Z,1953-01-01T00:00:00Z,,,1953-01-01T00:00:00Z,2019-01-15T13:34:48Z,6080,6030
6030,Flyvestation Ålborg,DNK,Forsvaret,Synop,Active,3,13,57.0963,9.8505,6,2024-11-28T14:46:41Z,1953-01-01T00:00:00Z,,,2019-01-15T13:34:48Z,,6080,6030
6031,Tylstrup,DNK,Synop - Århus Uni,Synop,Active,13,,57.1852,9.9527,6,2024-11-28T14:46:41Z,2002-03-21T00:00:00Z,,,2002-03-21T00:00:00Z,2023-12-14T08:11:58Z,6080,6031
6031,Tylstrup,DNK,Synop - Århus Uni,Synop,Active,13,14.58,57.1852,9.9527,6,2024-11-28T14:46:41Z,2002-03-21T00:00:00Z,,,2023-12-14T08:11:58Z,,6080,6031
6032,Stenhøj,DNK,DMI,Synop,Active,54.69,,57.3828,10.3349,6,2024-11-28T14:46:41Z,2003-11-12T00:00:00Z,,,2003-11-12T00:00:00Z,2019-01-15T13:34:48Z,6080,6032
6032,Stenhøj,DNK,DMI,Synop,Active,54.69,56.29,57.3828,10.3349,6,2024-11-28T14:46:41Z,2003-11-12T00:00:00Z,,,2019-01-15T13:34:48Z,,6080,6032
6041,Skagen Fyr,DNK,DMI,Synop,Active,3.2,,57.7363,10.6318,6,2024-11-28T14:46:41Z,1953-01-01T00:00:00Z,,,1953-01-01T00:00:00Z,2000-12-14T00:00:00Z,6080,6041
6041,Skagen Fyr,DNK,DMI,Synop,Active,3.2,,57.7364,10.6316,6,2024-11-28T14:46:41Z,1953-01-01T00:00:00Z,,,2000-12-14T00:00:00Z,2019-01-15T13:34:47Z,6080,6041
6041,Skagen Fyr,DNK,DMI,Synop,Active,3.2,4.8,57.7364,10.6316,6,2024-11-28T14:46:41Z,1953-01-01T00:00:00Z,,,2019-01-15T13:34:47Z,,6080,6041
6049,Hald Vest,DNK,DMI,Synop,Active,87.59,,56.5604,10.0929,6,2024-11-28T14:46:41Z,1999-11-19T00:00:00Z,,,1999-11-19T00:00:00Z,2019-01-15T13:34:47Z,6080,6049
6049,Hald Vest,DNK,DMI,Synop,Active,87.59,89.2,56.5604,10.0929,6,2024-11-28T14:46:41Z,1999-11-19T00:00:00Z,,,2019-01-15T13:34:47Z,,6080,6049
6051,Vestervig,DNK,DMI,Synop,Active,18,,56.7637,8.3207,6,2024-11-28T14:46:41Z,2003-09-11T00:00:00Z,,,2003-09-11T00:00:00Z,,6080,6051
6052,Thyborøn,DNK,DMI,Synop,Active,,,56.705,8.2206,6,2024-11-28T14:46:41Z,1961-01-01T00:00:00Z,,,1961-01-01T00:00:00Z,1985-02-07T00:00:00Z,6080,6052
6052,Thyborøn,DNK,DMI,Synop,Active,,,56.7004,8.2215,6,2024-11-28T14:46:41Z,1961-01-01T00:00:00Z,,,1985-02-07T00:00:00Z,2000-11-22T00:00:00Z,6080,6052
6052,Thyborøn,DNK,DMI,Synop,Active,2.09,,56.7068,8.215,6,2024-11-28T14:46:41Z,1961-01-01T00:00:00Z,,,2000-11-22T00:00:00Z,2019-01-15T13:34:48Z,6080,6052
6052,Thyborøn,DNK,DMI,Synop,Active,2.09,3.64,56.7068,8.215,6,2024-11-28T14:46:41Z,1961-01-01T00:00:00Z,,,2019-01-15T13:34:48Z,,6080,6052
6056,Mejrup,DNK,DMI,Synop,Active,53,,56.383,8.6705,6,2024-11-28T14:46:41Z,2002-06-11T00:00:00Z,,,2002-06-11T00:00:00Z,2019-01-15T13:34:47Z,6080,6056
6056,Mejrup,DNK,DMI,Synop,Active,53,54.62,56.383,8.6705,6,2024-11-28T14:46:41Z,2002-06-11T00:00:00Z,,,2019-01-15T13:34:47Z,,6080,6056
6058,Hvide Sande,DNK,DMI,Synop,Active,,,56.0005,8.1293,6,2024-11-28T14:46:41Z,1989-01-01T00:00:00Z,,,1989-01-01T00:00:00Z,2001-11-07T00:00:00Z,6080,6058
6058,Hvide Sande,DNK,DMI,Synop,Active,2,,56.0072,8.1413,6,2024-11-28T14:46:41Z,1989-01-01T00:00:00Z,,,2001-11-07T00:00:00Z,2019-01-15T13:34:47Z,6080,6058
6058,Hvide Sande,DNK,DMI,Synop,Active,2,4.16,56.0072,8.1413,6,2024-11-28T14:46:41Z,1989-01-01T00:00:00Z,,,2019-01-15T13:34:47Z,,6080,6058
6060,Flyvestation Karup,DNK,Forsvaret,Synop,Active,52,,56.2935,9.1138,6,2024-11-28T14:46:41Z,1953-01-01T00:00:00Z,,,1953-01-01T00:00:00Z,2019-01-15T13:34:48Z,6080,6060
6060,Flyvestation Karup,DNK,Forsvaret,Synop,Active,52,53,56.2935,9.1138,6,2024-11-28T14:46:41Z,1953-01-01T00:00:00Z,,,2019-01-15T13:34:48Z,,6080,6060
6065,Ålestrup,DNK,DMI,Synop,Active,,,56.6928,9.482,6,2024-11-28T14:46:41Z,1961-01-01T00:00:00Z,,,1961-01-01T00:00:00Z,1976-09-01T00:00:00Z,6080,6065
6065,Ålestrup,DNK,DMI,Synop,Active,,,56.6932,9.4968,6,2024-11-28T14:46:41Z,1961-01-01T00:00:00Z,,,1976-09-01T00:00:00Z,1988-04-01T00:00:00Z,6080,6065
6065,Års Syd,DNK,DMI,Synop,Active,31.74,,56.7558,9.5067,6,2024-11-28T14:46:41Z,1961-01-01T00:00:00Z,,,1988-04-01T00:00:00Z,2019-01-15T13:34:47Z,6080,6065
6065,Års Syd,DNK,DMI,Synop,Active,31.74,33.33,56.7558,9.5067,6,2024-11-28T14:46:41Z,1961-01-01T00:00:00Z,,,2019-01-15T13:34:47Z,,6080,6065
6068,Isenvad,DNK,DMI,Synop,Active,60.35,,56.0939,9.1811,6,2024-11-28T14:46:41Z,2002-10-10T00:00:00Z,,,2002-10-10T00:00:00Z,2019-01-15T13:34:48Z,6080,6068
6068,Isenvad,DNK,DMI,Synop,Active,60.35,61.95,56.0939,9.1811,6,2024-11-28T14:46:41Z,2002-10-10T00:00:00Z,,,2019-01-15T13:34:48Z,,6080,6068
6069,Foulum,DNK,Synop - Århus Uni,Synop,Active,53.4,,56.4931,9.5709,6,2024-11-28T14:46:41Z,1984-09-04T00:00:00Z,,,1984-09-04T00:00:00Z,2019-01-15T13:34:47Z,6080,6069
6069,Foulum,DNK,Synop - Århus Uni,Synop,Active,53.4,57.82,56.4931,9.5709,6,2024-11-28T14:46:41Z,1984-09-04T00:00:00Z,,,2019-01-15T13:34:47Z,2024-06-10T12:04:33Z,6080,6069
6069,Foulum,DNK,Synop - Århus Uni,Synop,Active,54,54.47,56.4931,9.5709,6,2024-11-28T14:46:41Z,1984-09-04T00:00:00Z,,,2024-06-10T12:04:33Z,2024-06-26T11:38:35Z,6080,6069
6069,Foulum,DNK,Synop - Århus Uni,Synop,Active,53.197,53.697,56.4931,9.5709,6,2024-11-28T14:46:41Z,1984-09-04T00:00:00Z,,,2024-06-26T11:38:35Z,,6080,6069
6070,Århus Lufthavn,DNK,Havne Kommuner mv,Synop,Active,20,,56.3083,10.6254,6,2024-11-28T14:46:41Z,1998-05-20T00:00:00Z,,,1998-05-20T00:00:00Z,2019-01-15T13:34:47Z,6080,6070
6070,Århus Lufthavn,DNK,Havne Kommuner mv,Synop,Active,20,23,56.3083,10.6254,6,2024-11-28T14:46:41Z,1998-05-20T00:00:00Z,,,2019-01-15T13:34:47Z,,6080,6070
6072,Ødum,DNK,DMI,Synop,Active,60.33,,56.3027,10.1272,6,2024-11-28T14:46:41Z,2001-05-28T00:00:00Z,,,2001-05-28T00:00:00Z,2019-01-15T13:34:47Z,6080,6072
6072,Ødum,DNK,DMI,Synop,Active,60.33,62.04,56.3027,10.1272,6,2024-11-28T14:46:41Z,2001-05-28T00:00:00Z,,,2019-01-15T13:34:47Z,,6080,6072
6073,Sletterhage Fyr,DNK,DMI,Synop,Active,4.27,,56.0954,10.5134,6,2024-11-28T14:46:41Z,1977-07-01T00:00:00Z,,,1977-07-01T00:00:00Z,1985-05-01T00:00:00Z,6080,6073
6073,Sletterhage Fyr,DNK,DMI,Synop,Active,4.27,,56.0955,10.5135,6,2024-11-28T14:46:41Z,1977-07-01T00:00:00Z,,,1985-05-01T00:00:00Z,2019-01-15T13:34:47Z,6080,6073
6073,Sletterhage Fyr,DNK,DMI,Synop,Active,4.27,5.85,56.0955,10.5135,6,2024-11-28T14:46:41Z,1977-07-01T00:00:00Z,,,2019-01-15T13:34:47Z,2024-11-22T13:53:39Z,6080,6073
6073,Sletterhage Fyr,DNK,DMI,Synop,Active,4.272,5.85,56.0955,10.5135,6,2024-11-28T14:46:41Z,1977-07-01T00:00:00Z,,,2024-11-22T13:53:39Z,,6080,6073
6074,Kirstinesminde Flyveplads,DNK,DMI,Synop,Active,,,56.1945,10.1703,6,2024-11-28T14:46:41Z,1976-06-14T00:00:00Z,,,1976-06-14T00:00:00Z,1987-09-21T00:00:00Z,6080,6074
6074,Århus Syd,DNK,DMI,Synop,Active,53.82,,56.0803,10.1353,6,2024-11-28T14:46:41Z,1976-06-14T00:00:00Z,,,1987-09-21T00:00:00Z,2019-01-15T13:34:47Z,6080,6074
6074,Århus Syd,DNK,DMI,Synop,Active,53.82,55.47,56.0803,10.1353,6,2024-11-28T14:46:41Z,1976-06-14T00:00:00Z,,,2019-01-15T13:34:47Z,,6080,6074
6079,Anholt Fyr,DNK,DMI,Synop,Active,,,56.736,11.6511,6,2024-11-28T14:46:41Z,1961-01-01T00:00:00Z,,,1961-01-01T00:00:00Z,1965-11-01T00:00:00Z,6080,6079
6079,Anholt By,DNK,DMI,Synop,Active,,,56.7034,11.547,6,2024-11-28T14:46:41Z,1961-01-01T00:00:00Z,,,1965-11-01T00:00:00Z,1976-11-25T00:00:00Z,6080,6079
6079,Anholt By,DNK,DMI,Synop,Active,,,56.7011,11.5436,6,2024-11-28T14:46:41Z,1961-01-01T00:00:00Z,,,1976-11-25T00:00:00Z,1980-04-01T00:00:00Z,6080,6079
6079,Anholt Havn,DNK,DMI,Synop,Active,2.36,,56.7169,11.5098,6,2024-11-28T14:46:41Z,1961-01-01T00:00:00Z,,,1980-04-06T00:00:00Z,2019-01-15T13:34:48Z,6080,6079
6079,Anholt Havn,DNK,DMI,Synop,Active,2.36,3.55,56.7169,11.5098,6,2024-11-28T14:46:41Z,1961-01-01T00:00:00Z,,,2019-01-15T13:34:48Z,,6080,6079
6080,Esbjerg Lufthavn,DNK,Havne Kommuner mv,Synop,Active,25,,55.5281,8.5626,6,2024-11-28T14:46:41Z,1984-10-01T00:00:00Z,,,1984-10-01T00:00:00Z,2019-01-15T13:34:48Z,6080,6080
6080,Esbjerg Lufthavn,DNK,Havne Kommuner mv,Synop,Active,25,29,55.5281,8.5626,6,2024-11-28T14:46:41Z,1984-10-01T00:00:00Z,,,2019-01-15T13:34:48Z,2024-11-14T16:10:27Z,6080,6080
6080,Esbjerg Lufthavn,DNK,Havne Kommuner mv,Synop,Active,25,29,55.5281,8.5627,6,2024-11-28T14:46:41Z,1984-10-01T00:00:00Z,,,2024-11-14T16:10:27Z,,6080,6080
6081,Blåvandshuk Fyr,DNK,DMI,Synop,Active,13,,55.5576,8.083,6,2024-11-28T14:46:41Z,1953-01-01T00:00:00Z,,,1953-01-01T00:00:00Z,1971-02-01T00:00:00Z,6080,6081
6081,Blåvandshuk Fyr,DNK,DMI,Synop,Active,13,,55.5575,8.0828,6,2024-11-28T14:46:41Z,1953-01-01T00:00:00Z,,,1971-02-01T00:00:00Z,2019-01-15T13:34:47Z,6080,6081
6081,Blåvandshuk Fyr,DNK,DMI,Synop,Active,13,17.62,55.5575,8.0828,6,2024-11-28T14:46:41Z,1953-01-01T00:00:00Z,,,2019-01-15T13:34:47Z,2024-11-22T13:53:48Z,6080,6081
6081,Blåvandshuk Fyr,DNK,DMI,Synop,Active,16,17.62,55.5575,8.0828,6,2024-11-28T14:46:41Z,1953-01-01T00:00:00Z,,,2024-11-22T13:53:48Z,,6080,6081
6082,Borris,DNK,DMI,Synop,Active,25,,55.9591,8.6242,6,2024-11-28T14:46:41Z,2002-04-17T00:00:00Z,,,2002-04-17T00:00:00Z,2024-01-05T10:37:04Z,6080,6082
6082,Borris,DNK,DMI,Synop,Active,25,26.6,55.9591,8.6242,6,2024-11-28T14:46:41Z,2002-04-17T00:00:00Z,,,2024-01-05T10:37:04Z,,6080,6082
6088,Nordby,DNK,DMI,Synop,Active,4,,55.4483,8.4003,6,2024-11-28T14:46:41Z,2003-07-23T00:00:00Z,,,2003-07-23T00:00:00Z,2007-07-05T00:00:00Z,6080,6088
6088,Nordby,DNK,DMI,Synop,Active,4,,55.4484,8.4,6,2024-11-28T14:46:41Z,2003-07-23T00:00:00Z,,,2007-07-05T00:00:00Z,2023-08-18T08:56:37Z,6080,6088
6088,Nordby,DNK,DMI,Synop,Active,4,,55.4426,8.3869,6,2024-11-28T14:46:41Z,2003-07-23T00:00:00Z,,,2023-08-18T08:56:37Z,2023-08-18T08:57:54Z,6080,6088
6088,Nordby,DNK,DMI,Synop,Active,6,,55.4426,8.3869,6,2024-11-28T14:46:41Z,2003-07-23T00:00:00Z,,,2023-08-18T08:57:54Z,,6080,6088
6093,Vester Vedsted,DNK,DMI,Synop,Active,3,,55.2908,8.6551,6,2024-11-28T14:46:41Z,2003-12-11T00:00:00Z,2024-06-27T00:00:00Z,,2003-12-11T00:00:00Z,2019-01-15T13:34:47Z,6080,6093
6093,Vester Vedsted,DNK,DMI,Synop,Active,3,4.72,55.2908,8.6551,6,2024-11-28T14:46:41Z,2003-12-11T00:00:00Z,2024-06-27T00:00:00Z,,2019-01-15T13:34:47Z,2024-06-27T00:00:00Z,6080,6093
6093,Vester Vedsted,DNK,DMI,Synop,Inactive,3,4.72,55.2908,8.6551,6,2024-11-28T14:46:41Z,2003-12-11T00:00:00Z,2024-06-27T00:00:00Z,,2024-06-27T00:00:00Z,,6080,6093
6096,Rømø/Juvre,DNK,DMI,Synop,Active,6,,55.1908,8.56,6,2024-11-28T14:46:41Z,1982-05-02T00:00:00Z,,,1982-05-02T00:00:00Z,2000-04-07T00:00:00Z,6080,6096
6096,Rømø/Juvre,DNK,DMI,Synop,Active,6,8.9,55.1904,8.5599,6,2024-11-28T14:46:41Z,1982-05-02T00:00:00Z,,,2000-04-07T00:00:00Z,,6080,6096
6102,Horsens/Bygholm,DNK,DMI,Synop,Active,22.09,,55.868,9.7872,6,2024-11-28T14:46:41Z,2001-05-28T00:00:00Z,,,2001-05-28T00:00:00Z,2019-01-15T13:34:47Z,6080,6102
6102,Horsens/Bygholm,DNK,DMI,Synop,Active,22.09,23.82,55.868,9.7872,6,2024-11-28T14:46:41Z,2001-05-28T00:00:00Z,,,2019-01-15T13:34:47Z,,6080,6102
6104,Billund Lufthavn,DNK,Havne Kommuner mv,Synop,Active,75,,55.7379,9.1674,6,2024-11-28T14:46:41Z,1973-05-11T00:00:00Z,,,1973-05-11T00:00:00Z,2019-01-15T13:34:48Z,6080,6104
6104,Billund Lufthavn,DNK,Havne Kommuner mv,Synop,Active,75,80,55.7379,9.1674,6,2024-11-28T14:46:41Z,1973-05-11T00:00:00Z,,,2019-01-15T13:34:48Z,2024-05-28T07:35:38Z,6080,6104
6104,Billund Lufthavn,DNK,Havne Kommuner mv,Synop,Active,75,80,55.7383,9.1744,6,2024-11-28T14:46:41Z,1973-05-11T00:00:00Z,,,2024-05-28T07:35:38Z,2024-11-14T16:10:28Z,6080,6104
6104,Billund Lufthavn,DNK,Havne Kommuner mv,Synop,Active,75,80,55.7379,9.1674,6,2024-11-28T14:46:41Z,1973-05-11T00:00:00Z,,,2024-11-14T16:10:28Z,,6080,6104
6108,Kolding Lufthavn,DNK,Havne Kommuner mv,Synop,Active,43.5,,55.4376,9.3338,6,2024-11-28T14:46:41Z,1990-01-01T00:00:00Z,,,1990-01-01T00:00:00Z,2019-01-15T13:34:48Z,6080,6108
6108,Kolding Lufthavn,DNK,Havne Kommuner mv,Synop,Active,44,45,55.4376,9.3338,6,2024-11-28T14:46:41Z,1990-01-01T00:00:00Z,,,2019-01-15T13:34:48Z,2024-11-22T13:54:07Z,6080,6108
6108,Kolding Lufthavn,DNK,Havne Kommuner mv,Synop,Active,43.5,45,55.4376,9.3338,6,2024-11-28T14:46:41Z,1990-01-01T00:00:00Z,,,2024-11-22T13:54:07Z,,6080,6108
6109,Askov,DNK,Synop - Århus Uni,Synop,Active,62,,55.4715,9.1124,6,2024-11-28T14:46:41Z,2002-04-24T00:00:00Z,,,2002-04-24T00:00:00Z,2024-02-06T08:28:29Z,6080,6109
6109,Askov,DNK,Synop - Århus Uni,Synop,Active,62,63.6,55.4715,9.1124,6,2024-11-28T14:46:41Z,2002-04-24T00:00:00Z,,,2024-02-06T08:28:29Z,,6080,6109
6110,Flyvestation Skrydstrup,DNK,Forsvaret,Synop,Active,41,,55.2251,9.2634,6,2024-11-28T14:46:41Z,1985-01-16T00:00:00Z,,,1985-01-16T00:00:00Z,2019-01-15T13:34:47Z,6080,6110
6110,Flyvestation Skrydstrup,DNK,Forsvaret,Synop,Active,41,47,55.2251,9.2634,6,2024-11-28T14:46:41Z,1985-01-16T00:00:00Z,,,2019-01-15T13:34:47Z,2024-11-14T16:10:29Z,6080,6110
6110,Flyvestation Skrydstrup,DNK,Forsvaret,Synop,Active,41,47,55.2252,9.2634,6,2024-11-28T14:46:41Z,1985-01-16T00:00:00Z,,,2024-11-14T16:10:29Z,,6080,6110
6116,Store Jyndevad,DNK,DMI,Synop,Active,15.3,,54.8987,9.123,6,2024-11-28T14:46:41Z,1984-09-05T00:00:00Z,,,1984-09-05T00:00:00Z,1988-06-24T00:00:00Z,6080,6116
6116,Store Jyndevad,DNK,DMI,Synop,Active,15.3,,54.8986,9.1229,6,2024-11-28T14:46:41Z,1984-09-05T00:00:00Z,,,1988-06-24T00:00:00Z,2019-10-04T11:57:08Z,6080,6116
6116,Store Jyndevad,DNK,DMI,Synop,Active,15.3,17.02,54.8986,9.1229,6,2024-11-28T14:46:41Z,1984-09-05T00:00:00Z,,,2019-10-04T11:57:08Z,2022-11-29T11:52:16Z,6080,6116
6116,Store Jyndevad,DNK,DMI,Synop,Active,15.3,17.02,54.8978,9.1282,6,2024-11-28T14:46:41Z,1984-09-05T00:00:00Z,,,2022-11-29T11:52:16Z,2023-03-24T09:43:44Z,6080,6116
6116,Store Jyndevad,DNK,DMI,Synop,Active,15.96,17.66,54.8977,9.1284,6,2024-11-28T14:46:41Z,1984-09-05T00:00:00Z,,,2023-03-24T09:43:44Z,2023-03-24T09:51:11Z,6080,6116
6116,Store Jyndevad,DNK,DMI,Synop,Active,15.96,17.62,54.8977,9.1284,6,2024-11-28T14:46:41Z,1984-09-05T00:00:00Z,,,2023-03-24T09:51:11Z,2023-03-24T09:59:40Z,6080,6116
6116,Store Jyndevad,DNK,DMI,Synop,Active,15.85,17.62,54.8977,9.1284,6,2024-11-28T14:46:41Z,1984-09-05T00:00:00Z,,,2023-03-24T09:59:40Z,,6080,6116
6118,Sønderborg Lufthavn,DNK,Havne Kommuner mv,Synop,Active,7.32,,54.9616,9.793,6,2024-11-28T14:46:41Z,2000-06-30T00:00:00Z,,,2000-06-30T00:00:00Z,2019-01-15T13:34:47Z,6080,6118
6118,Sønderborg Lufthavn,DNK,Havne Kommuner mv,Synop,Active,7.32,18.43,54.9616,9.793,6,2024-11-28T14:46:41Z,2000-06-30T00:00:00Z,,,2019-01-15T13:34:47Z,2024-11-22T13:53:38Z,6080,6118
6118,Sønderborg Lufthavn,DNK,Havne Kommuner mv,Synop,Active,7.315,18.43,54.9616,9.793,6,2024-11-28T14:46:41Z,2000-06-30T00:00:00Z,,,2024-11-22T13:53:38Z,,6080,6118
6119,Kegnæs Fyr,DNK,DMI,Synop,Active,17.05,,54.8529,9.988,6,2024-11-28T14:46:41Z,1961-01-01T00:00:00Z,,,1961-01-01T00:00:00Z,2002-08-23T00:00:00Z,6080,6119
6119,Kegnæs Fyr,DNK,DMI,Synop,Active,17.05,,54.8528,9.988,6,2024-11-28T14:46:41Z,1961-01-01T00:00:00Z,,,2002-08-23T00:00:00Z,2019-01-15T13:34:48Z,6080,6119
6119,Kegnæs Fyr,DNK,DMI,Synop,Active,17.05,18.66,54.8528,9.988,6,2024-11-28T14:46:41Z,1961-01-01T00:00:00Z,,,2019-01-15T13:34:48Z,,6080,6119
6120,Odense Lufthavn,DNK,Havne Kommuner mv,Synop,Active,15,,55.4735,10.3297,6,2024-11-28T14:46:41Z,1959-01-01T00:00:00Z,,,1959-01-01T00:00:00Z,1975-07-01T00:00:00Z,6080,6120
6120,Odense Lufthavn,DNK,Havne Kommuner mv,Synop,Active,15,,55.4749,10.3305,6,2024-11-28T14:46:41Z,1959-01-01T00:00:00Z,,,1975-07-01T00:00:00Z,2013-10-01T00:00:00Z,6080,6120
6120,H. C. Andersen Airport,DNK,Havne Kommuner mv,Synop,Active,15,,55.4748,10.3304,6,2024-11-28T14:46:41Z,1959-01-01T00:00:00Z,,,2013-10-01T00:00:00Z,2019-01-15T13:34:48Z,6080,6120
6120,H. C. Andersen Airport,DNK,Havne Kommuner mv,Synop,Active,15,21,55.4748,10.3304,6,2024-11-28T14:46:41Z,1959-01-01T00:00:00Z,,,2019-01-15T13:34:48Z,2024-11-22T13:54:36Z,6080,6120
6120,H. C. Andersen Airport,DNK,Havne Kommuner mv,Synop,Active,15,21,55.4749,10.3305,6,2024-11-28T14:46:41Z,1959-01-01T00:00:00Z,,,2024-11-22T13:54:36Z,,6080,6120
6123,Tvingsbjerg Fyr,DNK,DMI,Synop,Active,,,55.3106,9.8928,6,2024-11-28T14:46:41Z,1953-01-01T00:00:00Z,,,1953-01-01T00:00:00Z,1988-11-21T00:00:00Z,6080,6123
6123,Assens/Torø,DNK,DMI,Synop,Active,1.65,,55.2444,9.8882,6,2024-11-28T14:46:41Z,1953-01-01T00:00:00Z,,,1988-11-21T00:00:00Z,2019-01-15T13:34:48Z,6080,6123
6123,Assens/Torø,DNK,DMI,Synop,Active,1.65,3.39,55.2444,9.8882,6,2024-11-28T14:46:41Z,1953-01-01T00:00:00Z,,,2019-01-15T13:34:48Z,,6080,6123
6124,Sydfyns Flyveplads,DNK,DMI,Synop,Active,6,,55.0142,10.5686,6,2024-11-28T14:46:41Z,1981-05-12T00:00:00Z,,,1981-05-12T00:00:00Z,1996-11-08T00:00:00Z,6080,6124
6124,Sydfyns Flyveplads,DNK,DMI,Synop,Active,6,,55.0144,10.5693,6,2024-11-28T14:46:41Z,1981-05-12T00:00:00Z,,,1996-11-08T00:00:00Z,2019-01-15T13:34:48Z,6080,6124
6124,Sydfyns Flyveplads,DNK,DMI,Synop,Active,6,7,55.0144,10.5693,6,2024-11-28T14:46:41Z,1981-05-12T00:00:00Z,,,2019-01-15T13:34:48Z,2024-09-20T11:45:23Z,6080,6124
6124,Elvira Madigan Airport,DNK,DMI,Synop,Active,6,7,55.0144,10.5693,6,2024-11-28T14:46:41Z,1981-05-12T00:00:00Z,,,2024-09-20T11:45:23Z,,6080,6124
6126,Årslev,DNK,DMI,Synop,Active,49.2,,55.3088,10.4398,6,2024-11-28T14:46:41Z,2001-06-14T00:00:00Z,,,2001-06-14T00:00:00Z,2019-01-15T13:34:47Z,6080,6126
6126,Årslev,DNK,DMI,Synop,Active,49.2,50.93,55.3088,10.4398,6,2024-11-28T14:46:41Z,2001-06-14T00:00:00Z,,,2019-01-15T13:34:47Z,,6080,6126
6132,Tranebjerg Øst,DNK,DMI,Synop,Active,16,,55.8315,10.6217,6,2024-11-28T14:46:41Z,2003-08-20T00:00:00Z,,,2003-08-20T00:00:00Z,,6080,6132
6135,Flakkebjerg,DNK,DMI,Synop,Active,32.5,,55.3224,11.3879,6,2024-11-28T14:46:41Z,2001-06-06T00:00:00Z,,,2001-06-06T00:00:00Z,2019-01-15T13:34:48Z,6080,6135
6135,Flakkebjerg,DNK,DMI,Synop,Active,32.5,34.22,55.3224,11.3879,6,2024-11-28T14:46:41Z,2001-06-06T00:00:00Z,,,2019-01-15T13:34:48Z,,6080,6135
6136,Tystofte,DNK,DMI,Synop,Active,12,,55.2465,11.3285,6,2024-11-28T14:46:41Z,2002-04-11T00:00:00Z,,,2002-04-11T00:00:00Z,,6080,6136
6138,Langø,DNK,DMI,Synop,Active,2.01,,54.8205,10.9939,6,2024-11-28T14:46:41Z,2000-05-23T00:00:00Z,,,2000-05-23T00:00:00Z,2019-01-15T13:34:48Z,6080,6138
6138,Langø,DNK,DMI,Synop,Active,2.01,3.69,54.8205,10.9939,6,2024-11-28T14:46:41Z,2000-05-23T00:00:00Z,,,2019-01-15T13:34:48Z,,6080,6138
6141,Abed,DNK,DMI,Synop,Active,7,,54.8275,11.3292,6,2024-11-28T14:46:41Z,1999-08-31T00:00:00Z,,,1999-08-31T00:00:00Z,2019-01-15T13:34:47Z,6080,6141
6141,Abed,DNK,DMI,Synop,Active,7,9.12,54.8275,11.3292,6,2024-11-28T14:46:41Z,1999-08-31T00:00:00Z,,,2019-01-15T13:34:47Z,,6080,6141
6147,Gedser Rev Fyrskib,DNK,DMI,Synop,Active,,,54.4536,12.1791,6,2024-11-28T14:46:41Z,1961-01-01T00:00:00Z,,,1961-01-01T00:00:00Z,1976-04-01T00:00:00Z,6080,6147
6147,Vindebæk Kyst,DNK,DMI,Synop,Active,3.05,,54.879,12.1841,6,2024-11-28T14:46:41Z,1961-01-01T00:00:00Z,,,1976-04-01T00:00:00Z,2019-01-15T13:34:48Z,6080,6147
6147,Vindebæk Kyst,DNK,DMI,Synop,Active,3.05,4.63,54.879,12.1841,6,2024-11-28T14:46:41Z,1961-01-01T00:00:00Z,,,2019-01-15T13:34:48Z,,6080,6147
6149,Gedser Fyr,DNK,DMI,Synop,Active,,,54.5639,11.964,6,2024-11-28T14:46:41Z,1959-01-01T00:00:00Z,,,1959-01-01T00:00:00Z,1968-07-06T00:00:00Z,6080,6149
6149,Gedser Odde,DNK,DMI,Synop,Active,,,54.56,11.9709,6,2024-11-28T14:46:41Z,1959-01-01T00:00:00Z,,,1968-07-06T00:00:00Z,2003-02-20T00:00:00Z,6080,6149
6149,Gedser,DNK,DMI,Synop,Active,3.26,,54.5687,11.9435,6,2024-11-28T14:46:41Z,1959-01-01T00:00:00Z,,,2003-02-20T00:00:00Z,2019-01-15T13:34:47Z,6080,6149
6149,Gedser,DNK,DMI,Synop,Active,3.26,4.89,54.5687,11.9435,6,2024-11-28T14:46:41Z,1959-01-01T00:00:00Z,,,2019-01-15T13:34:47Z,,6080,6149
6151,Omø Fyr,DNK,DMI,Synop,Active,1.5,,55.1598,11.1339,6,2024-11-28T14:46:41Z,1961-01-01T00:00:00Z,,,1961-01-01T00:00:00Z,1993-01-19T00:00:00Z,6080,6151
6151,Omø Fyr,DNK,DMI,Synop,Active,1.5,,55.1593,11.1348,6,2024-11-28T14:46:41Z,1961-01-01T00:00:00Z,,,1993-01-19T00:00:00Z,2019-01-15T13:34:47Z,6080,6151
6151,Omø Fyr,DNK,DMI,Synop,Active,1.5,2.7,55.1593,11.1348,6,2024-11-28T14:46:41Z,1961-01-01T00:00:00Z,,,2019-01-15T13:34:47Z,,6080,6151
6154,Brandelev,DNK,DMI,Synop,Active,44.52,,55.2075,11.8605,6,2024-11-28T14:46:41Z,2004-01-21T00:00:00Z,,,2004-01-21T00:00:00Z,2019-01-15T13:34:47Z,6080,6154
6154,Brandelev,DNK,DMI,Synop,Active,44.52,46.11,55.2075,11.8605,6,2024-11-28T14:46:41Z,2004-01-21T00:00:00Z,,,2019-01-15T13:34:47Z,,6080,6154
6156,Holbæk,DNK,DMI,Synop,Active,,,55.7154,11.7088,6,2024-11-28T14:46:41Z,1967-01-01T00:00:00Z,,,1967-01-01T00:00:00Z,1997-07-12T00:00:00Z,6080,6156
6156,Holbæk Flyveplads,DNK,DMI,Synop,Active,11.58,,55.7358,11.6035,6,2024-11-28T14:46:41Z,1967-01-01T00:00:00Z,,,1997-07-12T00:00:00Z,2019-01-15T13:34:48Z,6080,6156
6156,Holbæk Flyveplads,DNK,DMI,Synop,Active,11.58,13.34,55.7358,11.6035,6,2024-11-28T14:46:41Z,1967-01-01T00:00:00Z,,,2019-01-15T13:34:48Z,,6080,6156
6159,Røsnæs Fyr,DNK,DMI,Synop,Active,14.16,,55.7436,10.8691,6,2024-11-28T14:46:41Z,1959-01-01T00:00:00Z,,,1959-01-01T00:00:00Z,2001-11-15T00:00:00Z,6080,6159
6159,Røsnæs Fyr,DNK,DMI,Synop,Active,14.16,,55.7435,10.8694,6,2024-11-28T14:46:41Z,1959-01-01T00:00:00Z,,,2001-11-15T00:00:00Z,2019-01-15T13:34:47Z,6080,6159
6159,Røsnæs Fyr,DNK,DMI,Synop,Active,14.16,15.75,55.7435,10.8694,6,2024-11-28T14:46:41Z,1959-01-01T00:00:00Z,,,2019-01-15T13:34:47Z,,6080,6159
6168,Nakkehoved Fyr,DNK,DMI,Synop,Active,37,,56.1193,12.3429,6,2024-11-28T14:46:41Z,1982-01-15T00:00:00Z,,,1982-01-15T00:00:00Z,2001-01-18T00:00:00Z,6080,6168
6168,Nakkehoved Fyr,DNK,DMI,Synop,Active,37,,56.1193,12.3424,6,2024-11-28T14:46:41Z,1982-01-15T00:00:00Z,,,2001-01-18T00:00:00Z,2019-01-15T13:34:48Z,6080,6168
6168,Nakkehoved Fyr,DNK,DMI,Synop,Active,37,43,56.1193,12.3424,6,2024-11-28T14:46:41Z,1982-01-15T00:00:00Z,,,2019-01-15T13:34:48Z,,6080,6168
6169,Gniben,DNK,DMI,Synop,Active,14.39,,56.0067,11.2805,6,2024-11-28T14:46:41Z,1961-01-01T00:00:00Z,,,1961-01-01T00:00:00Z,1974-08-01T00:00:00Z,6080,6169
6169,Gniben,DNK,DMI,Synop,Active,14.39,,56.0064,11.2792,6,2024-11-28T14:46:41Z,1961-01-01T00:00:00Z,,,1974-08-01T00:00:00Z,1979-04-01T00:00:00Z,6080,6169
6169,Gniben,DNK,DMI,Synop,Active,14.39,,56.0084,11.2785,6,2024-11-28T14:46:41Z,1961-01-01T00:00:00Z,,,1979-04-01T00:00:00Z,1983-02-15T00:00:00Z,6080,6169
6169,Gniben,DNK,DMI,Synop,Active,14.39,,56.0083,11.2787,6,2024-11-28T14:46:41Z,1961-01-01T00:00:00Z,,,1983-02-15T00:00:00Z,2019-01-15T13:34:48Z,6080,6169
6169,Gniben,DNK,DMI,Synop,Active,14.39,15.98,56.0083,11.2787,6,2024-11-28T14:46:41Z,1961-01-01T00:00:00Z,,,2019-01-15T13:34:48Z,,6080,6169
6170,Roskilde Lufthavn,DNK,Danske lufthavne,Synop,Active,42,,55.5867,12.1366,6,2024-11-28T14:46:41Z,1973-04-01T00:00:00Z,,,1973-04-01T00:00:00Z,2019-01-15T13:34:47Z,6080,6170
6170,Roskilde Lufthavn,DNK,Danske lufthavne,Synop,Active,42,43,55.5867,12.1366,6,2024-11-28T14:46:41Z,1973-04-01T00:00:00Z,,,2019-01-15T13:34:47Z,,6080,6170
6174,Køge,DNK,DMI,Synop,Active,,,55.4634,12.1913,6,2024-11-28T14:46:41Z,1953-01-01T00:00:00Z,,,1953-01-01T00:00:00Z,1982-01-01T00:00:00Z,6080,6174
6174,Tessebølle,DNK,DMI,Synop,Active,20.74,,55.3955,12.149,6,2024-11-28T14:46:41Z,1953-01-01T00:00:00Z,,,1982-01-01T00:00:00Z,2019-01-15T13:34:47Z,6080,6174
6174,Tessebølle,DNK,DMI,Synop,Active,20.74,22.31,55.3955,12.149,6,2024-11-28T14:46:41Z,1953-01-01T00:00:00Z,,,2019-01-15T13:34:47Z,,6080,6174
6180,Københavns Lufthavn,DNK,Danske lufthavne,Synop,Active,5,,55.614,12.6455,6,2024-11-28T14:46:41Z,1983-06-16T00:00:00Z,,,1983-06-16T00:00:00Z,2019-01-15T13:34:48Z,6080,6180
6180,Københavns Lufthavn,DNK,Danske lufthavne,Synop,Active,5,5,55.614,12.6455,6,2024-11-28T14:46:41Z,1983-06-16T00:00:00Z,,,2019-01-15T13:34:48Z,2024-11-14T16:10:37Z,6080,6180
6180,Københavns Lufthavn,DNK,Danske lufthavne,Synop,Active,5,5,55.614,12.6454,6,2024-11-28T14:46:41Z,1983-06-16T00:00:00Z,,,2024-11-14T16:10:37Z,,6080,6180
6181,Jægersborg,DNK,DMI,Synop,Active,40,,55.7664,12.5263,6,2024-11-28T14:46:41Z,1994-02-10T00:00:00Z,,,1994-02-10T00:00:00Z,2019-01-15T13:34:47Z,6080,6181
6181,Jægersborg,DNK,DMI,Synop,Active,40,42,55.7664,12.5263,6,2024-11-28T14:46:41Z,1994-02-10T00:00:00Z,,,2019-01-15T13:34:47Z,,6080,6181
6186,Landbohøjskolen,DNK,DMI,Synop,Active,,,55.6814,12.5403,6,2024-11-28T14:46:41Z,1964-02-01T00:00:00Z,,,1964-02-01T00:00:00Z,1997-06-13T00:00:00Z,6080,6186
6186,Landbohøjskolen,DNK,DMI,Synop,Active,7,,55.6861,12.5439,6,2024-11-28T14:46:41Z,1964-02-01T00:00:00Z,,,1997-06-13T00:00:00Z,,6080,6186
6187,Københavns Toldbod,DNK,DMI,Synop,Active,20,,55.6886,12.5985,6,2024-11-28T14:46:41Z,2004-02-20T00:00:00Z,,,2004-02-20T00:00:00Z,,6080,6187
6188,Sjælsmark,DNK,DMI,Synop,Active,39.69,,55.8764,12.4121,6,2024-11-28T14:46:41Z,2003-08-08T00:00:00Z,,,2003-08-08T00:00:00Z,2019-01-15T13:34:47Z,6080,6188
6188,Sjælsmark,DNK,DMI,Synop,Active,39.69,41.28,55.8764,12.4121,6,2024-11-28T14:46:41Z,2003-08-08T00:00:00Z,,,2019-01-15T13:34:47Z,,6080,6188
6190,Bornholms Lufthavn,DNK,Danske lufthavne,Synop,Active,15,,55.0677,14.7494,6,2024-11-28T14:46:41Z,1977-06-01T00:00:00Z,,,1977-06-01T00:00:00Z,2019-01-15T13:34:47Z,6080,6190
6190,Bornholms Lufthavn,DNK,Danske lufthavne,Synop,Active,15,17,55.0677,14.7494,6,2024-11-28T14:46:41Z,1977-06-01T00:00:00Z,,,2019-01-15T13:34:47Z,,6080,6190
6193,Hammer Odde Fyr,DNK,DMI,Synop,Active,,,55.2981,14.7726,6,2024-11-28T14:46:41Z,1953-03-01T00:00:00Z,,,1953-03-01T00:00:00Z,1974-07-01T00:00:00Z,6080,6193
6193,Hammer Odde Fyr,DNK,DMI,Synop,Active,,,55.298,14.7738,6,2024-11-28T14:46:41Z,1953-03-01T00:00:00Z,,,1974-07-01T00:00:00Z,2001-08-30T00:00:00Z,6080,6193
6193,Hammer Odde Fyr,DNK,DMI,Synop,Active,7.81,,55.2979,14.7718,6,2024-11-28T14:46:41Z,1953-03-01T00:00:00Z,,,2001-08-30T00:00:00Z,2019-01-15T13:34:47Z,6080,6193
6193,Hammer Odde Fyr,DNK,DMI,Synop,Active,7.81,9.36,55.2979,14.7718,6,2024-11-28T14:46:41Z,1953-03-01T00:00:00Z,,,2019-01-15T13:34:47Z,,6080,6193
6197,Nexø Vest,DNK,DMI,Synop,Active,23.13,,55.0557,15.0953,6,2024-11-28T14:46:41Z,2002-09-19T00:00:00Z,,,2002-09-19T00:00:00Z,2019-01-15T13:34:48Z,6080,6197
6197,Nexø Vest,DNK,DMI,Synop,Active,23.13,24.85,55.0557,15.0953,6,2024-11-28T14:46:41Z,2002-09-19T00:00:00Z,,,2019-01-15T13:34:48Z,,6080,6197
20000,Skagen Fyr,DNK,DMI,Manual snow,Active,3,,57.7363,10.6318,,2024-11-28T14:46:41Z,2001-03-02T00:00:00Z,,,2001-03-02T00:00:00Z,,,
20030,Uggerby,DNK,DMI,Manual snow,Active,8,,57.5705,10.1073,,2024-11-28T14:46:41Z,2011-10-01T00:00:00Z,,,2011-10-01T00:00:00Z,,,
20055,Nørre Lyngby N,DNK,DMI,Manual snow,Active,22,,57.4185,9.7608,,2024-11-28T14:46:41Z,2011-10-01T00:00:00Z,,,2011-10-01T00:00:00Z,,,
20085,Lendum,DNK,DMI,Manual snow,Active,61,,57.4029,10.2705,,2024-11-28T14:46:41Z,2011-10-01T00:00:00Z,,,2011-10-01T00:00:00Z,,,
20228,Voerså Hede,DNK,DMI,Manual snow,Active,22,,57.2214,10.4708,,2024-11-28T14:46:41Z,2011-10-01T00:00:00Z,,,2011-10-01T00:00:00Z,,,
20279,Møllegård Huse,DNK,DMI,Manual snow,Active,7,,56.9556,10.2275,,2024-11-28T14:46:41Z,2014-11-03T00:00:00Z,,,2014-11-03T00:00:00Z,,,
20315,Klarup,DNK,DMI,Manual snow,Active,9.5,,57.0105,10.0351,,2024-11-28T14:46:41Z,2018-01-02T00:00:00Z,,,2018-01-02T00:00:00Z,,,
20375,Brovst,DNK,DMI,Manual snow,Active,12,,57.0945,9.5253,,2024-11-28T14:46:41Z,2019-10-01T00:00:00Z,,,2019-10-01T00:00:00Z,,,
20400,Aggersund,DNK,DMI,Manual snow,Active,8,,57.0143,9.2889,,2024-11-28T14:46:41Z,2011-10-01T00:00:00Z,,,2011-10-01T00:00:00Z,,,
20552,Års Syd,DNK,DMI,Manual snow,Active,32,,56.7575,9.5059,,2024-11-28T14:46:41Z,2015-04-08T00:00:00Z,,,2015-04-08T00:00:00Z,,,
20561,Hannerup,DNK,DMI,Manual snow,Active,,,56.6509,9.7012,,2024-11-28T14:46:41Z,2011-12-16T00:00:00Z,2021-12-01T00:00:00Z,,2011-12-16T00:00:00Z,2021-12-01T00:00:00Z,,
20561,Hannerup,DNK,DMI,Manual snow,Inactive,,,56.6509,9.7012,,2024-11-28T14:46:41Z,2011-12-16T00:00:00Z,2021-12-01T00:00:00Z,,2021-12-01T00:00:00Z,,,
20600,Mørkeskov,DNK,DMI,Manual snow,Active,84,,56.8136,9.8247,,2024-11-28T14:46:41Z,2011-10-01T00:00:00Z,,,2011-10-01T00:00:00Z,,,
20670,Havnø,DNK,DMI,Manual snow,Active,2,,56.7157,10.1645,,2024-11-28T14:46:41Z,2011-10-01T00:00:00Z,,,2011-10-01T00:00:00Z,,,
21020,Lild Strand,DNK,DMI,Manual snow,Active,6,,57.1518,8.9649,,2024-11-28T14:46:41Z,2011-10-01T00:00:00Z,,,2011-10-01T00:00:00Z,,,
21080,Nørre Vorupør,DNK,DMI,Manual snow,Active,16,,56.951,8.3769,,2024-11-28T14:46:41Z,2011-10-01T00:00:00Z,,,2011-10-01T00:00:00Z,,,
21100,Vestervig,DNK,DMI,Manual snow,Active,,,56.7637,8.3207,,2022-02-08T13:36:46Z,1971-01-01T00:00:00Z,,,1971-01-01T00:00:00Z,2020-10-01T00:00:00Z,,
21100,Vestervig,DNK,DMI,Manual snow,Active,21.5,,56.7793,8.3316,,2022-02-08T13:36:46Z,1971-01-01T00:00:00Z,,,2020-10-01T00:00:00Z,,,
21120,Erslev,DNK,DMI,Manual snow,Active,26,,56.8334,8.7297,,2024-11-28T14:46:41Z,2018-06-11T00:00:00Z,,,2018-06-11T00:00:00Z,,,
21160,Junget,DNK,DMI,Manual snow,Active,21,,56.7637,9.0946,,2024-11-28T14:46:41Z,2011-10-01T00:00:00Z,,,2011-10-01T00:00:00Z,,,
21208,Skive Lufthavn,DNK,DMI,Manual snow,Active,23,,56.5446,9.1916,,2024-11-28T14:46:41Z,2014-10-01T00:00:00Z,,,2014-10-01T00:00:00Z,,,
21368,Flyvestation Karup,DNK,DMI,Manual snow,Active,52,,56.2934,9.1139,,2024-11-28T14:46:41Z,2014-02-03T00:00:00Z,,,2014-02-03T00:00:00Z,,,
21430,Grønbæk,DNK,DMI,Manual snow,Active,,,56.2761,9.6256,,2024-11-28T14:46:41Z,2011-10-01T00:00:00Z,,,2011-10-01T00:00:00Z,2020-02-20T14:11:04Z,,
21430,Grønbæk,DNK,DMI,Manual snow,Active,,,56.2745,9.6315,,2024-11-28T14:46:41Z,2011-10-01T00:00:00Z,,,2020-02-20T14:11:04Z,,,
22020,Hald,DNK,DMI,Manual snow,Active,78,,56.5664,10.0983,,2024-11-28T14:46:41Z,2008-08-27T00:00:00Z,,,2008-08-27T00:00:00Z,,,
22080,Hevringsholm,DNK,DMI,Manual snow,Active,12,,56.5062,10.4403,,2024-11-28T14:46:41Z,2011-10-01T00:00:00Z,,,2011-10-01T00:00:00Z,,,
22162,Sibirien,DNK,DMI,Manual snow,Active,14,,56.1103,10.5466,,2024-11-28T14:46:41Z,2011-10-01T00:00:00Z,,,2011-10-01T00:00:00Z,,,
22189,Tirstrup,DNK,DMI,Manual snow,Active,28,,56.3037,10.6619,,2024-11-28T14:46:41Z,2012-01-01T00:00:00Z,,,2012-01-01T00:00:00Z,,,
22232,Ødum,DNK,DMI,Manual snow,Active,,,56.308,10.1292,,2024-11-28T14:46:41Z,2012-01-01T00:00:00Z,,,2012-01-01T00:00:00Z,2022-12-15T14:23:24Z,,
22232,Ødum,DNK,DMI,Manual snow,Active,52.5,,56.3244,10.0791,,2024-11-28T14:46:41Z,2012-01-01T00:00:00Z,,,2022-12-15T14:23:24Z,,,
22410,Flensted,DNK,DMI,Manual snow,Active,,,56.1496,9.7876,,2024-11-28T14:46:41Z,2011-10-01T00:00:00Z,,,2011-10-01T00:00:00Z,2024-10-31T14:34:23Z,,
22410,Låsby,DNK,DMI,Manual snow,Active,,,56.1496,9.7876,,2024-11-28T14:46:41Z,2011-10-01T00:00:00Z,,,2024-10-31T14:34:23Z,2024-10-31T14:36:03Z,,
22410,Låsby,DNK,DMI,Manual snow,Active,,,56.1581,9.8145,,2024-11-28T14:46:41Z,2011-10-01T00:00:00Z,,,2024-10-31T14:36:03Z,,,
22414,Christianshede,DNK,DMI,Manual snow,Active,,,56.1056,9.4024,6,2024-11-28T14:46:41Z,2023-09-28T11:21:44Z,,,2023-09-27T06:25:40Z,2023-09-28T11:21:44Z,6080,22414
22414,Christianshede,DNK,DMI,Manual snow,Active,109,,56.1045,9.4352,6,2024-11-28T14:46:41Z,2023-09-28T11:21:44Z,,,2023-09-28T11:21:44Z,,6080,22414
23100,Vestbirk,DNK,DMI,Manual snow,Active,56,,55.961,9.7021,,2024-11-28T14:46:41Z,2003-09-25T00:00:00Z,,,2003-09-25T00:00:00Z,,,
23105,Malling,DNK,DMI,Manual snow,Active,49,,56.0438,10.2084,6,2024-11-28T14:46:41Z,2023-10-01T00:00:00Z,,,2023-09-22T11:35:59Z,,6080,23105
23133,Juelsminde,DNK,DMI,Manual snow,Active,24,,55.7102,9.9962,,2024-11-28T14:46:41Z,2011-10-01T00:00:00Z,,,2011-10-01T00:00:00Z,,,
23142,Vester Neble,DNK,DMI,Manual snow,Active,,,55.4302,9.2388,6,2024-11-28T14:46:41Z,2023-10-01T00:00:00Z,,,2023-09-27T06:30:48Z,2023-11-14T14:37:53Z,6080,23142
23142,Vester Neble,DNK,DMI,Manual snow,Active,52,,55.5625,9.4055,6,2024-11-28T14:46:41Z,2023-10-01T00:00:00Z,,,2023-11-14T14:37:53Z,,6080,23142
23160,Hesseballe,DNK,DMI,Manual snow,Active,68,,55.8314,9.5533,,2024-11-28T14:46:41Z,2011-10-01T00:00:00Z,,,2011-10-01T00:00:00Z,,,
23327,Kolding,DNK,DMI,Manual snow,Active,,,55.4716,9.4847,,2024-11-28T14:46:41Z,2012-01-01T00:00:00Z,2018-12-31T00:00:00Z,,2012-01-01T00:00:00Z,2018-12-31T00:00:00Z,,
23327,Kolding,DNK,DMI,Manual snow,Inactive,,,55.4716,9.4847,,2024-11-28T14:46:41Z,2012-01-01T00:00:00Z,2018-12-31T00:00:00Z,,2018-12-31T00:00:00Z,,,
23360,Haderslev,DNK,DMI,Manual snow,Active,37,,55.2561,9.4715,,2024-11-28T14:46:41Z,2019-11-01T00:00:00Z,,,2019-11-01T00:00:00Z,,,
24043,Semb,DNK,DMI,Manual snow,Active,23,,56.6553,8.5476,,2024-11-28T14:46:41Z,2011-10-01T00:00:00Z,,,2011-10-01T00:00:00Z,,,
24056,Lemvig,DNK,DMI,Manual snow,Active,,,56.5499,8.3037,6,2024-11-28T14:46:41Z,2023-09-29T11:58:15Z,,,2023-09-27T06:34:51Z,2023-09-29T11:58:15Z,6080,24056
24056,Lemvig,DNK,DMI,Manual snow,Active,30,,56.5485,8.278,6,2024-11-28T14:46:41Z,2023-09-29T11:58:15Z,,,2023-09-29T11:58:15Z,,6080,24056
24102,Holstebro,DNK,DMI,Manual snow,Active,,,56.3534,8.6201,,2024-11-28T14:46:41Z,2019-10-01T00:00:00Z,,,2019-10-01T00:00:00Z,,,
24142,Øby,DNK,DMI,Manual snow,Active,3,,56.2604,8.1659,,2024-11-28T14:46:41Z,1993-08-01T00:00:00Z,,,1993-08-01T00:00:00Z,,,
24171,Grønbjerg,DNK,DMI,Manual snow,Active,35,,56.184,8.4863,,2024-11-28T14:46:41Z,2012-01-01T00:00:00Z,,,2012-01-01T00:00:00Z,,,
24380,Borris,DNK,DMI,Manual snow,Active,,,55.9571,8.6196,,2022-02-17T14:08:52Z,2011-12-22T00:00:00Z,,,2011-12-22T00:00:00Z,2019-11-01T00:00:00Z,,
24380,Tarm,DNK,DMI,Manual snow,Active,,,55.9126,8.5112,,2022-02-17T14:08:52Z,2011-12-22T00:00:00Z,,,2019-11-01T00:00:00Z,2021-02-16T11:52:54Z,,
24380,Tarm,DNK,DMI,Manual snow,Active,,,55.9114,8.511,,2022-02-17T14:08:52Z,2011-12-22T00:00:00Z,,,2021-02-16T11:52:54Z,,,
24430,Høgild,DNK,DMI,Manual snow,Active,43,,56.0627,8.9855,,2024-11-28T14:46:41Z,2011-12-21T00:00:00Z,,,2011-12-21T00:00:00Z,,,
24490,Blåhøj Kirkeby,DNK,DMI,Manual snow,Active,52,,55.8527,9.0162,,2024-11-28T14:46:41Z,2011-10-01T00:00:00Z,,,2011-10-01T00:00:00Z,,,
25045,Outrup,DNK,DMI,Manual snow,Active,18,,55.723,8.3327,,2024-11-28T14:46:41Z,2012-10-25T00:00:00Z,,,2012-10-25T00:00:00Z,,,
25161,Oksvang Andrup,DNK,DMI,Manual snow,Active,24,,55.5213,8.5231,,2024-11-28T14:46:41Z,2012-01-01T00:00:00Z,,,2012-01-01T00:00:00Z,,,
25270,Askov,DNK,DMI,Manual snow,Active,61,,55.471,9.0906,,2024-11-28T14:46:41Z,2015-01-01T00:00:00Z,,,2015-01-01T00:00:00Z,,,
25339,Ribe Renseanlæg,DNK,DMI,Manual snow,Active,3,,55.3286,8.7433,,2024-11-28T14:46:41Z,2011-10-01T00:00:00Z,,,2011-10-01T00:00:00Z,,,
26210,Rangstrup,DNK,DMI,Manual snow,Active,52,,55.147,9.2057,,2024-11-28T14:46:41Z,2002-09-13T00:00:00Z,,,2002-09-13T00:00:00Z,,,
26340,Bredebro,DNK,DMI,Manual snow,Active,6,,55.0561,8.8326,,2024-11-28T14:46:41Z,2001-12-14T00:00:00Z,,,2001-12-14T00:00:00Z,,,
26358,Emmerlev Klev,DNK,DMI,Manual snow,Active,,,54.9872,8.6652,,2024-11-28T14:46:41Z,2011-10-01T00:00:00Z,2024-09-30T00:00:00Z,,2011-10-01T00:00:00Z,2024-09-30T00:00:00Z,,
26358,Emmerlev Klev,DNK,DMI,Manual snow,Inactive,,,54.9872,8.6652,,2024-11-28T14:46:41Z,2011-10-01T00:00:00Z,2024-09-30T00:00:00Z,,2024-09-30T00:00:00Z,,,
26450,Nørreløkke,DNK,DMI,Manual snow,Active,,,55.0646,9.6811,,2024-11-28T14:46:41Z,2011-10-01T00:00:00Z,2023-04-30T00:00:00Z,,2011-10-01T00:00:00Z,2023-04-30T00:00:00Z,,
26450,Nørreløkke,DNK,DMI,Manual snow,Inactive,,,55.0646,9.6811,,2024-11-28T14:46:41Z,2011-10-01T00:00:00Z,2023-04-30T00:00:00Z,,2023-04-30T00:00:00Z,,,
27008,Byrum,DNK,DMI,Manual snow,Active,5,,57.2746,11.0292,,2024-11-28T14:46:41Z,2002-07-05T00:00:00Z,,,2002-07-05T00:00:00Z,,,
27082,Tranebjerg Øst,DNK,DMI,Manual snow,Active,18,,55.8322,10.6185,,2024-11-28T14:46:41Z,2009-11-18T00:00:00Z,,,2009-11-18T00:00:00Z,,,
28032,Roerslev,DNK,DMI,Manual snow,Active,,,55.5677,10.3412,,2024-11-28T14:46:41Z,2019-12-04T00:00:00Z,2021-04-01T00:00:00Z,,2019-12-04T00:00:00Z,2021-04-01T00:00:00Z,,
28032,Roerslev,DNK,DMI,Manual snow,Inactive,,,55.5677,10.3412,,2024-11-28T14:46:41Z,2019-12-04T00:00:00Z,2021-04-01T00:00:00Z,,2021-04-01T00:00:00Z,,,
28110,Båring,DNK,DMI,Manual snow,Active,64,,55.4927,9.8948,,2024-11-28T14:46:41Z,2011-10-01T00:00:00Z,,,2011-10-01T00:00:00Z,,,
28188,Næsbyhoved-Broby,DNK,DMI,Manual snow,Active,,,55.4392,10.3063,,2024-11-28T14:46:41Z,2022-01-31T23:00:00Z,,,2022-01-25T10:21:05Z,,,
28240,Rosilde,DNK,DMI,Manual snow,Active,,,55.3042,10.7279,,2024-11-28T14:46:41Z,2002-03-02T00:00:00Z,,,2002-03-02T00:00:00Z,2020-08-19T09:18:14Z,,
28240,Rosilde,DNK,DMI,Manual snow,Active,22,,55.3474,10.7618,,2024-11-28T14:46:41Z,2002-03-02T00:00:00Z,,,2020-08-19T09:18:14Z,2020-08-20T08:23:11Z,,
28240,Juelsberg,DNK,DMI,Manual snow,Active,22,,55.3474,10.7618,,2024-11-28T14:46:41Z,2002-03-02T00:00:00Z,,,2020-08-20T08:23:11Z,,,
28280,Årslev,DNK,DMI,Manual snow,Active,,,55.3088,10.4398,,2024-11-28T14:46:41Z,2012-01-01T00:00:00Z,2021-05-31T00:00:00Z,,2012-01-01T00:00:00Z,2019-11-19T10:16:27Z,,
28280,Højby,DNK,DMI,Manual snow,Active,,,55.3257,10.438,,2024-11-28T14:46:41Z,2012-01-01T00:00:00Z,2021-05-31T00:00:00Z,,2019-11-19T10:16:27Z,2021-05-31T00:00:00Z,,
28280,Højby,DNK,DMI,Manual snow,Inactive,,,55.3257,10.438,,2024-11-28T14:46:41Z,2012-01-01T00:00:00Z,2021-05-31T00:00:00Z,,2021-05-31T00:00:00Z,,,
28305,Korinth,DNK,DMI,Manual snow,Active,51,,55.1461,10.3262,,2024-11-28T14:46:41Z,2024-10-01T00:00:00Z,,,2024-09-12T09:36:38Z,,,
28385,Bøjden,DNK,DMI,Manual snow,Active,25,,55.0977,10.1024,,2024-11-28T14:46:41Z,2011-10-01T00:00:00Z,,,2011-10-01T00:00:00Z,,,
28552,Søndenbro,DNK,DMI,Manual snow,Active,7,,54.7567,10.7094,,2024-11-28T14:46:41Z,2011-10-01T00:00:00Z,,,2011-10-01T00:00:00Z,,,
28590,Rudkøbing,DNK,DMI,Manual snow,Active,8,,54.9462,10.7234,,2024-11-28T14:46:41Z,2011-10-01T00:00:00Z,,,2011-10-01T00:00:00Z,,,
28592,Vindeby,DNK,DMI,Manual snow,Active,,,55.0445,10.6073,6,2024-11-28T14:46:41Z,2023-10-01T00:00:00Z,,,2023-09-27T06:22:10Z,2023-10-02T10:07:50Z,6080,28592
28592,Vindeby,DNK,DMI,Manual snow,Active,3,,55.0505,10.6204,6,2024-11-28T14:46:41Z,2023-10-01T00:00:00Z,,,2023-10-02T10:07:50Z,2024-11-22T13:54:27Z,6080,28592
28592,Vindeby,DNK,DMI,Manual snow,Active,0,,55.0505,10.6204,6,2024-11-28T14:46:41Z,2023-10-01T00:00:00Z,,,2024-11-22T13:54:27Z,,6080,28592
29020,Kollekolle,DNK,DMI,Manual snow,Active,30,,55.8686,11.6064,,2024-11-28T14:46:41Z,2015-07-22T00:00:00Z,,,2015-07-22T00:00:00Z,,,
29194,Mørkøv Syd,DNK,DMI,Manual snow,Active,36.5,,55.639,11.4935,,2024-11-28T14:46:41Z,2016-10-01T00:00:00Z,,,2016-10-01T00:00:00Z,,,
29243,Mulstrup,DNK,DMI,Manual snow,Active,,,55.4069,11.862,,2024-11-28T14:46:41Z,2011-12-01T00:00:00Z,,,2011-12-01T00:00:00Z,2021-10-27T08:03:36Z,,
29243,Mulstrup,DNK,DMI,Manual snow,Active,,,55.4026,11.8648,,2024-11-28T14:46:41Z,2011-12-01T00:00:00Z,,,2021-10-27T08:03:36Z,,,
29330,Rye,DNK,DMI,Manual snow,Active,,,55.5271,11.2379,,2024-11-28T14:46:41Z,2011-10-01T00:00:00Z,,,2011-10-01T00:00:00Z,2019-11-19T10:25:51Z,,
29330,Rye,DNK,DMI,Manual snow,Active,11,,55.5184,11.2341,,2024-11-28T14:46:41Z,2011-10-01T00:00:00Z,,,2019-11-19T10:25:51Z,,,
29440,Tystofte,DNK,DMI,Manual snow,Active,12,,55.2465,11.3284,,2024-11-28T14:46:41Z,2013-03-26T00:00:00Z,,,2013-03-26T00:00:00Z,,,
30075,Græsted,DNK,DMI,Manual snow,Active,,,56.0428,12.2918,,2024-11-28T14:46:41Z,2000-01-02T00:00:00Z,2024-09-30T00:00:00Z,,2000-01-02T00:00:00Z,2024-09-30T00:00:00Z,,
30075,Græsted,DNK,DMI,Manual snow,Inactive,,,56.0428,12.2918,,2024-11-28T14:46:41Z,2000-01-02T00:00:00Z,2024-09-30T00:00:00Z,,2024-09-30T00:00:00Z,,,
30187,Kettinge,DNK,DMI,Manual snow,Active,,,55.8796,12.4115,,2024-11-28T14:46:41Z,2012-09-01T00:00:00Z,2022-04-30T00:00:00Z,,2012-09-01T00:00:00Z,2022-04-30T00:00:00Z,,
30187,Kettinge,DNK,DMI,Manual snow,Inactive,,,55.8796,12.4115,,2024-11-28T14:46:41Z,2012-09-01T00:00:00Z,2022-04-30T00:00:00Z,,2022-04-30T00:00:00Z,,,
30215,Meteorologisk Institut,DNK,DMI,Manual snow,Active,,,55.7161,12.5622,,2024-11-28T14:46:41Z,2018-02-02T00:00:00Z,,,2018-02-02T00:00:00Z,2023-10-13T12:00:07Z,,
30215,Meteorologisk Institut,DNK,DMI,Manual snow,Active,,,55.7103,12.5641,,2024-11-28T14:46:41Z,2018-02-02T00:00:00Z,,,2023-10-13T12:00:07Z,,,
30414,Roskilde,DNK,DMI,Manual snow,Active,,,55.6343,12.0747,,2024-11-28T14:46:41Z,2012-01-01T00:00:00Z,,,2012-01-01T00:00:00Z,2019-07-31T09:22:19Z,,
30414,Roskilde,DNK,DMI,Manual snow,Active,,,55.6429,12.0424,,2024-11-28T14:46:41Z,2012-01-01T00:00:00Z,,,2019-07-31T09:22:19Z,,,
31040,Møllebjerggård,DNK,DMI,Manual snow,Active,37,,55.2932,12.4223,,2024-11-28T14:46:41Z,2011-10-01T00:00:00Z,,,2011-10-01T00:00:00Z,,,
31185,Køng,DNK,DMI,Manual snow,Active,4,,55.0984,11.8285,,2024-11-28T14:46:41Z,2009-07-30T00:00:00Z,,,2009-07-30T00:00:00Z,,,
31199,Orup,DNK,DMI,Manual snow,Active,38,,55.2074,12.0979,,2024-11-28T14:46:41Z,2011-10-01T00:00:00Z,,,2011-10-01T00:00:00Z,,,
31259,Borre,DNK,DMI,Manual snow,Active,,,54.9963,12.444,,2024-11-28T14:46:41Z,2012-10-01T00:00:00Z,,,2012-10-01T00:00:00Z,2019-11-19T10:44:47Z,,
31259,Neble,DNK,DMI,Manual snow,Active,15.5,,54.9595,12.245,,2024-11-28T14:46:41Z,2012-10-01T00:00:00Z,,,2019-11-19T10:44:47Z,,,
31350,Tjennemarke,DNK,DMI,Manual snow,Active,,,54.8073,11.3405,,2024-11-28T14:46:41Z,2012-01-01T00:00:00Z,2022-09-30T00:00:00Z,,2012-01-01T00:00:00Z,2022-09-30T00:00:00Z,,
31350,Tjennemarke,DNK,DMI,Manual snow,Inactive,,,54.8073,11.3405,,2024-11-28T14:46:41Z,2012-01-01T00:00:00Z,2022-09-30T00:00:00Z,,2022-09-30T00:00:00Z,,,
31400,Nakskov,DNK,DMI,Manual snow,Active,2,,54.826,11.1541,,2024-11-28T14:46:41Z,2011-10-01T00:00:00Z,,,2011-10-01T00:00:00Z,,,
31509,Systofte Skovby Nord,DNK,DMI,Manual snow,Active,,,54.7926,11.9101,,2024-11-28T14:46:41Z,2016-10-17T00:00:00Z,,,2016-10-17T00:00:00Z,2019-11-19T09:47:22Z,,
31509,Systofte Skovby Nord,DNK,DMI,Manual snow,Active,21,,54.779,11.9315,,2024-11-28T14:46:41Z,2016-10-17T00:00:00Z,,,2019-11-19T09:47:22Z,2019-11-19T09:51:12Z,,
31509,Bjørup,DNK,DMI,Manual snow,Active,21,,54.779,11.9315,,2024-11-28T14:46:41Z,2016-10-17T00:00:00Z,,,2019-11-19T09:51:12Z,,,
31570,Rødbyhavn,DNK,DMI,Manual snow,Active,2,,54.6573,11.3515,,2024-11-28T14:46:41Z,2011-10-01T00:00:00Z,,,2011-10-01T00:00:00Z,,,
32110,Vestermarie,DNK,DMI,Manual snow,Active,83,,55.1069,14.8205,,2024-11-28T14:46:41Z,2012-02-01T00:00:00Z,,,2012-02-01T00:00:00Z,,,
32175,Østerlars,DNK,DMI,Manual snow,Active,,,55.1635,14.97,,2024-11-28T14:46:41Z,2019-07-01T00:00:00Z,,,2019-07-01T00:00:00Z,,,
34231,Mittarfik Kangerlussuaq,GRL,DMI,Manual precipitation,Active,50,,67.02,-50.6972,,2024-11-28T14:46:41Z,2017-01-01T00:00:00Z,,,2017-01-01T00:00:00Z,,,
34234,Mittarfik Sisimiut,GRL,DMI,Manual precipitation,Active,10,,66.9517,-53.7217,,2024-11-28T14:46:41Z,2004-12-01T00:00:00Z,,,2004-12-01T00:00:00Z,,,
34270,Narsarsuaq,GRL,DMI,Manual precipitation,Active,26,,61.1575,-45.44,,2024-11-28T14:46:41Z,2009-01-22T00:00:00Z,,,2009-01-22T00:00:00Z,,,
34310,Station Nord,GRL,DMI,Manual precipitation,Active,36,,81.6022,-16.6633,,2024-11-28T14:46:41Z,2008-02-01T00:00:00Z,,,2008-02-01T00:00:00Z,,,
34320,Danmarkshavn,GRL,DMI,Manual precipitation,Active,11,,76.7694,-18.6681,,2024-11-28T14:46:41Z,2009-01-01T00:00:00Z,,,2009-01-01T00:00:00Z,,,
34339,Ittoqqortoormiit,GRL,DMI,Manual precipitation,Active,,,70.4844,-21.9511,,2024-11-28T14:46:41Z,2005-08-17T00:00:00Z,,,2005-08-17T00:00:00Z,,,